<?xml version="1.0" encoding="UTF-8"?>
<kml xmlns="http://www.opengis.net/kml/2.2"><Document><name>ATLAS · 주소와 도면 · 3D 마커</name><description>발행처 위치와 대략적인 지역 위치를 폴더·색상으로 구분합니다. 마커 높이는 표시용이며 건물 높이가 아닙니다.</description><LookAt><longitude>127.4</longitude><latitude>36.4</latitude><altitude>0</altitude><heading>0</heading><tilt>25</tilt><range>650000</range></LookAt><Folder><name>주소·시설 위치</name><Placemark id="multilevel-dogok"><name>도곡중 복합시설 · 지하 1–4층 · B1</name><address>서울특별시 강남구 도곡동 541-2 도곡중학교</address><description>&lt;p&gt;서울특별시 강남구 도곡동 541-2 도곡중학교&lt;/p&gt;&lt;p&gt;주소·시설 위치 · 추가 도면 0장&lt;/p&gt;&lt;p&gt;마커 높이는 표시용이며 건물 높이가 아닙니다.&lt;/p&gt;&lt;p&gt;&lt;a href=&quot;https://ms.smc.seoul.kr/attach/record/SEOUL/appendix/a10/A0051136.pdf#page=17&quot;&gt;도면 발행처 원문&lt;/a&gt; · &lt;a href=&quot;https://www.google.com/maps/search/?api=1&amp;amp;query=%EC%84%9C%EC%9A%B8%ED%8A%B9%EB%B3%84%EC%8B%9C+%EA%B0%95%EB%82%A8%EA%B5%AC+%EB%8F%84%EA%B3%A1%EB%8F%99+541-2+%EB%8F%84%EA%B3%A1%EC%A4%91%ED%95%99%EA%B5%90&quot;&gt;구글 지도에서 주소 확인&lt;/a&gt;&lt;/p&gt;</description><Style><IconStyle><color>ff607a48</color><scale>1.1</scale><Icon><href>https://maps.google.com/mapfiles/kml/shapes/placemark_circle.png</href></Icon></IconStyle><LineStyle><color>ff607a48</color><width>2</width></LineStyle><LabelStyle><scale>0.8</scale></LabelStyle></Style><LookAt><longitude>127.0449746</longitude><latitude>37.4925348</latitude><altitude>0</altitude><heading>0</heading><tilt>65</tilt><range>850</range><altitudeMode>relativeToGround</altitudeMode></LookAt><ExtendedData><Data name="siteId"><value>multilevel-dogok</value></Data><Data name="precision"><value>address-result</value></Data><Data name="source"><value>https://www.openstreetmap.org/way/417952853</value></Data></ExtendedData><Point><extrude>1</extrude><altitudeMode>relativeToGround</altitudeMode><coordinates>127.0449746,37.4925348,60</coordinates></Point></Placemark><Placemark id="parking-168780"><name>동탄호수공원 주차장</name><address>경기도 화성시 동탄구 동탄대로5길 12 외 1필지</address><description>&lt;p&gt;경기도 화성시 동탄구 동탄대로5길 12 외 1필지&lt;/p&gt;&lt;p&gt;주소·시설 위치 · 추가 도면 8장&lt;/p&gt;&lt;p&gt;마커 높이는 표시용이며 건물 높이가 아닙니다.&lt;/p&gt;&lt;p&gt;&lt;a href=&quot;https://magazine.brique.co/project/uia-dongtan-lake-park-arched-car-park-architecture/&quot;&gt;도면 발행처 원문&lt;/a&gt; · &lt;a href=&quot;https://www.google.com/maps/search/?api=1&amp;amp;query=%EA%B2%BD%EA%B8%B0%EB%8F%84+%ED%99%94%EC%84%B1%EC%8B%9C+%EB%8F%99%ED%83%84%EA%B5%AC+%EB%8F%99%ED%83%84%EB%8C%80%EB%A1%9C5%EA%B8%B8+12+%EC%99%B8+1%ED%95%84%EC%A7%80&quot;&gt;구글 지도에서 주소 확인&lt;/a&gt;&lt;/p&gt;</description><Style><IconStyle><color>ff607a48</color><scale>1.1</scale><Icon><href>https://maps.google.com/mapfiles/kml/shapes/placemark_circle.png</href></Icon></IconStyle><LineStyle><color>ff607a48</color><width>2</width></LineStyle><LabelStyle><scale>0.8</scale></LabelStyle></Style><LookAt><longitude>127.105092</longitude><latitude>37.167928</latitude><altitude>0</altitude><heading>0</heading><tilt>65</tilt><range>850</range><altitudeMode>relativeToGround</altitudeMode></LookAt><ExtendedData><Data name="siteId"><value>parking-168780</value></Data><Data name="precision"><value>osm-facility-centroid</value></Data><Data name="source"><value>https://www.openstreetmap.org/way/683628616</value></Data></ExtendedData><Point><extrude>1</extrude><altitudeMode>relativeToGround</altitudeMode><coordinates>127.105092,37.167928,60</coordinates></Point></Placemark><Placemark id="parking-68790"><name>매곡도서관</name><address>울산광역시 북구 매곡로 138-19 138-19, Maegok-ro, Buk-gu, Ulsan, Korea</address><description>&lt;p&gt;울산광역시 북구 매곡로 138-19 138-19, Maegok-ro, Buk-gu, Ulsan, Korea&lt;/p&gt;&lt;p&gt;주소·시설 위치 · 추가 도면 8장&lt;/p&gt;&lt;p&gt;마커 높이는 표시용이며 건물 높이가 아닙니다.&lt;/p&gt;&lt;p&gt;&lt;a href=&quot;https://magazine.brique.co/project/%eb%a7%a4%ea%b3%a1%eb%8f%84%ec%84%9c%ea%b4%80/&quot;&gt;도면 발행처 원문&lt;/a&gt; · &lt;a href=&quot;https://www.google.com/maps/search/?api=1&amp;amp;query=%EC%9A%B8%EC%82%B0%EA%B4%91%EC%97%AD%EC%8B%9C+%EB%B6%81%EA%B5%AC+%EB%A7%A4%EA%B3%A1%EB%A1%9C+138-19+138-19%2C+Maegok-ro%2C+Buk-gu%2C+Ulsan%2C+Korea&quot;&gt;구글 지도에서 주소 확인&lt;/a&gt;&lt;/p&gt;</description><Style><IconStyle><color>ff607a48</color><scale>1.1</scale><Icon><href>https://maps.google.com/mapfiles/kml/shapes/placemark_circle.png</href></Icon></IconStyle><LineStyle><color>ff607a48</color><width>2</width></LineStyle><LabelStyle><scale>0.8</scale></LabelStyle></Style><LookAt><longitude>129.3588273</longitude><latitude>35.6464076</latitude><altitude>0</altitude><heading>0</heading><tilt>65</tilt><range>850</range><altitudeMode>relativeToGround</altitudeMode></LookAt><ExtendedData><Data name="siteId"><value>parking-68790</value></Data><Data name="precision"><value>osm-facility-centroid</value></Data><Data name="source"><value>https://www.openstreetmap.org/node/9787116144</value></Data></ExtendedData><Point><extrude>1</extrude><altitudeMode>relativeToGround</altitudeMode><coordinates>129.3588273,35.6464076,60</coordinates></Point></Placemark></Folder><Folder><name>발행처 제공 위치</name><Placemark id="changdong"><name>창동 아우르네 · 공개 계획</name><address>서울특별시 도봉구 마들로13길 84 (창동 아우르네)</address><description>&lt;p&gt;서울특별시 도봉구 마들로13길 84 (창동 아우르네)&lt;/p&gt;&lt;p&gt;발행처 제공 위치 · 추가 도면 6장&lt;/p&gt;&lt;p&gt;마커 높이는 표시용이며 건물 높이가 아닙니다.&lt;/p&gt;&lt;p&gt;&lt;a href=&quot;https://mediahub.seoul.go.kr/wp-content/uploads/2020/03/ff42c687eb729c49cb070336a85c9abc.pdf#page=16&quot;&gt;도면 발행처 원문&lt;/a&gt; · &lt;a href=&quot;https://www.google.com/maps/search/?api=1&amp;amp;query=%EC%84%9C%EC%9A%B8%ED%8A%B9%EB%B3%84%EC%8B%9C+%EB%8F%84%EB%B4%89%EA%B5%AC+%EB%A7%88%EB%93%A4%EB%A1%9C13%EA%B8%B8+84+%28%EC%B0%BD%EB%8F%99+%EC%95%84%EC%9A%B0%EB%A5%B4%EB%84%A4%29&quot;&gt;구글 지도에서 주소 확인&lt;/a&gt;&lt;/p&gt;</description><Style><IconStyle><color>ff8e7952</color><scale>1.1</scale><Icon><href>https://maps.google.com/mapfiles/kml/shapes/placemark_circle.png</href></Icon></IconStyle><LineStyle><color>ff8e7952</color><width>2</width></LineStyle><LabelStyle><scale>0.8</scale></LabelStyle></Style><LookAt><longitude>127.048185</longitude><latitude>37.655512</latitude><altitude>0</altitude><heading>0</heading><tilt>65</tilt><range>850</range><altitudeMode>relativeToGround</altitudeMode></LookAt><ExtendedData><Data name="siteId"><value>changdong</value></Data><Data name="precision"><value>publisher-google-point</value></Data><Data name="source"><value>https://www.50plus.or.kr/snc/location.do</value></Data></ExtendedData><Point><extrude>1</extrude><altitudeMode>relativeToGround</altitudeMode><coordinates>127.048185,37.655512,60</coordinates></Point></Placemark><Placemark id="10000901"><name>신내소행주 - 공동육아형 공동체주택 [너나들이]</name><address>서울 중랑구 신내역로1길 145 너나들이</address><description>&lt;p&gt;서울 중랑구 신내역로1길 145 너나들이&lt;/p&gt;&lt;p&gt;발행처 제공 위치 · 추가 도면 0장&lt;/p&gt;&lt;p&gt;마커 높이는 표시용이며 건물 높이가 아닙니다.&lt;/p&gt;&lt;p&gt;&lt;a href=&quot;https://soco.seoul.go.kr/coHouse/pgm/home/cohome/view.do?homeCode=10000901&amp;amp;menuNo=200015&quot;&gt;도면 발행처 원문&lt;/a&gt; · &lt;a href=&quot;https://www.google.com/maps/search/?api=1&amp;amp;query=%EC%84%9C%EC%9A%B8+%EC%A4%91%EB%9E%91%EA%B5%AC+%EC%8B%A0%EB%82%B4%EC%97%AD%EB%A1%9C1%EA%B8%B8+145+%EB%84%88%EB%82%98%EB%93%A4%EC%9D%B4&quot;&gt;구글 지도에서 주소 확인&lt;/a&gt;&lt;/p&gt;</description><Style><IconStyle><color>ff8e7952</color><scale>1.1</scale><Icon><href>https://maps.google.com/mapfiles/kml/shapes/placemark_circle.png</href></Icon></IconStyle><LineStyle><color>ff8e7952</color><width>2</width></LineStyle><LabelStyle><scale>0.8</scale></LabelStyle></Style><LookAt><longitude>127.1102204</longitude><latitude>37.6180982</latitude><altitude>0</altitude><heading>0</heading><tilt>65</tilt><range>850</range><altitudeMode>relativeToGround</altitudeMode></LookAt><ExtendedData><Data name="siteId"><value>10000901</value></Data><Data name="precision"><value>publisher-naver-point</value></Data><Data name="source"><value>https://soco.seoul.go.kr/coHouse/pgm/home/cohome/view.do?homeCode=10000901&amp;menuNo=200015</value></Data></ExtendedData><Point><extrude>1</extrude><altitudeMode>relativeToGround</altitudeMode><coordinates>127.1102204,37.6180982,60</coordinates></Point></Placemark><Placemark id="20000555"><name>어반그로잉 동숭</name><address>서울 종로구 동숭동 192-6 1</address><description>&lt;p&gt;서울 종로구 동숭동 192-6 1&lt;/p&gt;&lt;p&gt;발행처 제공 위치 · 추가 도면 2장&lt;/p&gt;&lt;p&gt;마커 높이는 표시용이며 건물 높이가 아닙니다.&lt;/p&gt;&lt;p&gt;&lt;a href=&quot;https://soco.seoul.go.kr/coHouse/pgm/home/cohome/view.do?homeCode=20000555&amp;amp;menuNo=200015&quot;&gt;도면 발행처 원문&lt;/a&gt; · &lt;a href=&quot;https://www.google.com/maps/search/?api=1&amp;amp;query=%EC%84%9C%EC%9A%B8+%EC%A2%85%EB%A1%9C%EA%B5%AC+%EB%8F%99%EC%88%AD%EB%8F%99+192-6+1&quot;&gt;구글 지도에서 주소 확인&lt;/a&gt;&lt;/p&gt;</description><Style><IconStyle><color>ff8e7952</color><scale>1.1</scale><Icon><href>https://maps.google.com/mapfiles/kml/shapes/placemark_circle.png</href></Icon></IconStyle><LineStyle><color>ff8e7952</color><width>2</width></LineStyle><LabelStyle><scale>0.8</scale></LabelStyle></Style><LookAt><longitude>127.0053034</longitude><latitude>37.5794313</latitude><altitude>0</altitude><heading>0</heading><tilt>65</tilt><range>850</range><altitudeMode>relativeToGround</altitudeMode></LookAt><ExtendedData><Data name="siteId"><value>20000555</value></Data><Data name="precision"><value>publisher-naver-point</value></Data><Data name="source"><value>https://soco.seoul.go.kr/coHouse/pgm/home/cohome/view.do?homeCode=20000555&amp;menuNo=200015</value></Data></ExtendedData><Point><extrude>1</extrude><altitudeMode>relativeToGround</altitudeMode><coordinates>127.0053034,37.5794313,60</coordinates></Point></Placemark><Placemark id="10002143"><name>면목동 공동체주택마을 [도서당]</name><address>서울특별시 중랑구 동일로631-3 (면목동) 앞 면목동 176-129번지</address><description>&lt;p&gt;서울특별시 중랑구 동일로631-3 (면목동) 앞 면목동 176-129번지&lt;/p&gt;&lt;p&gt;발행처 제공 위치 · 추가 도면 0장&lt;/p&gt;&lt;p&gt;마커 높이는 표시용이며 건물 높이가 아닙니다.&lt;/p&gt;&lt;p&gt;&lt;a href=&quot;https://soco.seoul.go.kr/coHouse/pgm/home/cohome/view.do?homeCode=10002143&amp;amp;menuNo=200015&quot;&gt;도면 발행처 원문&lt;/a&gt; · &lt;a href=&quot;https://www.google.com/maps/search/?api=1&amp;amp;query=%EC%84%9C%EC%9A%B8%ED%8A%B9%EB%B3%84%EC%8B%9C+%EC%A4%91%EB%9E%91%EA%B5%AC+%EB%8F%99%EC%9D%BC%EB%A1%9C631-3+%28%EB%A9%B4%EB%AA%A9%EB%8F%99%29+%EC%95%9E+%EB%A9%B4%EB%AA%A9%EB%8F%99+176-129%EB%B2%88%EC%A7%80&quot;&gt;구글 지도에서 주소 확인&lt;/a&gt;&lt;/p&gt;</description><Style><IconStyle><color>ff8e7952</color><scale>1.1</scale><Icon><href>https://maps.google.com/mapfiles/kml/shapes/placemark_circle.png</href></Icon></IconStyle><LineStyle><color>ff8e7952</color><width>2</width></LineStyle><LabelStyle><scale>0.8</scale></LabelStyle></Style><LookAt><longitude>127.078164</longitude><latitude>37.586564</latitude><altitude>0</altitude><heading>0</heading><tilt>65</tilt><range>850</range><altitudeMode>relativeToGround</altitudeMode></LookAt><ExtendedData><Data name="siteId"><value>10002143</value></Data><Data name="precision"><value>publisher-naver-point</value></Data><Data name="source"><value>https://soco.seoul.go.kr/coHouse/pgm/home/cohome/view.do?homeCode=10002143&amp;menuNo=200015</value></Data></ExtendedData><Point><extrude>1</extrude><altitudeMode>relativeToGround</altitudeMode><coordinates>127.078164,37.586564,60</coordinates></Point></Placemark><Placemark id="20000367"><name>맑은구름집</name><address>서울특별시 종로구 자하문로30길19-9 (청운동) 맑은구름집</address><description>&lt;p&gt;서울특별시 종로구 자하문로30길19-9 (청운동) 맑은구름집&lt;/p&gt;&lt;p&gt;발행처 제공 위치 · 추가 도면 4장&lt;/p&gt;&lt;p&gt;마커 높이는 표시용이며 건물 높이가 아닙니다.&lt;/p&gt;&lt;p&gt;&lt;a href=&quot;https://soco.seoul.go.kr/coHouse/pgm/home/cohome/view.do?homeCode=20000367&amp;amp;menuNo=200015&quot;&gt;도면 발행처 원문&lt;/a&gt; · &lt;a href=&quot;https://www.google.com/maps/search/?api=1&amp;amp;query=%EC%84%9C%EC%9A%B8%ED%8A%B9%EB%B3%84%EC%8B%9C+%EC%A2%85%EB%A1%9C%EA%B5%AC+%EC%9E%90%ED%95%98%EB%AC%B8%EB%A1%9C30%EA%B8%B819-9+%28%EC%B2%AD%EC%9A%B4%EB%8F%99%29+%EB%A7%91%EC%9D%80%EA%B5%AC%EB%A6%84%EC%A7%91&quot;&gt;구글 지도에서 주소 확인&lt;/a&gt;&lt;/p&gt;</description><Style><IconStyle><color>ff8e7952</color><scale>1.1</scale><Icon><href>https://maps.google.com/mapfiles/kml/shapes/placemark_circle.png</href></Icon></IconStyle><LineStyle><color>ff8e7952</color><width>2</width></LineStyle><LabelStyle><scale>0.8</scale></LabelStyle></Style><LookAt><longitude>126.9658718</longitude><latitude>37.566156</latitude><altitude>0</altitude><heading>0</heading><tilt>65</tilt><range>850</range><altitudeMode>relativeToGround</altitudeMode></LookAt><ExtendedData><Data name="siteId"><value>20000367</value></Data><Data name="precision"><value>publisher-naver-point</value></Data><Data name="source"><value>https://soco.seoul.go.kr/coHouse/pgm/home/cohome/view.do?homeCode=20000367&amp;menuNo=200015</value></Data></ExtendedData><Point><extrude>1</extrude><altitudeMode>relativeToGround</altitudeMode><coordinates>126.9658718,37.566156,60</coordinates></Point></Placemark><Placemark id="20000474"><name>사는자리 공동체주택</name><address>서울 금천구 시흥대로130길 13 사는자리</address><description>&lt;p&gt;서울 금천구 시흥대로130길 13 사는자리&lt;/p&gt;&lt;p&gt;발행처 제공 위치 · 추가 도면 0장&lt;/p&gt;&lt;p&gt;마커 높이는 표시용이며 건물 높이가 아닙니다.&lt;/p&gt;&lt;p&gt;&lt;a href=&quot;https://soco.seoul.go.kr/coHouse/pgm/home/cohome/view.do?homeCode=20000474&amp;amp;menuNo=200015&quot;&gt;도면 발행처 원문&lt;/a&gt; · &lt;a href=&quot;https://www.google.com/maps/search/?api=1&amp;amp;query=%EC%84%9C%EC%9A%B8+%EA%B8%88%EC%B2%9C%EA%B5%AC+%EC%8B%9C%ED%9D%A5%EB%8C%80%EB%A1%9C130%EA%B8%B8+13+%EC%82%AC%EB%8A%94%EC%9E%90%EB%A6%AC&quot;&gt;구글 지도에서 주소 확인&lt;/a&gt;&lt;/p&gt;</description><Style><IconStyle><color>ff8e7952</color><scale>1.1</scale><Icon><href>https://maps.google.com/mapfiles/kml/shapes/placemark_circle.png</href></Icon></IconStyle><LineStyle><color>ff8e7952</color><width>2</width></LineStyle><LabelStyle><scale>0.8</scale></LabelStyle></Style><LookAt><longitude>126.8997224</longitude><latitude>37.4709282</latitude><altitude>0</altitude><heading>0</heading><tilt>65</tilt><range>850</range><altitudeMode>relativeToGround</altitudeMode></LookAt><ExtendedData><Data name="siteId"><value>20000474</value></Data><Data name="precision"><value>publisher-naver-point</value></Data><Data name="source"><value>https://soco.seoul.go.kr/coHouse/pgm/home/cohome/view.do?homeCode=20000474&amp;menuNo=200015</value></Data></ExtendedData><Point><extrude>1</extrude><altitudeMode>relativeToGround</altitudeMode><coordinates>126.8997224,37.4709282,60</coordinates></Point></Placemark><Placemark id="10000921"><name>신내 여성안심주택 [달리]</name><address>서울 중랑구 신내동 243-14 여성안심공동체주택 달리</address><description>&lt;p&gt;서울 중랑구 신내동 243-14 여성안심공동체주택 달리&lt;/p&gt;&lt;p&gt;발행처 제공 위치 · 추가 도면 0장&lt;/p&gt;&lt;p&gt;마커 높이는 표시용이며 건물 높이가 아닙니다.&lt;/p&gt;&lt;p&gt;&lt;a href=&quot;https://soco.seoul.go.kr/coHouse/pgm/home/cohome/view.do?homeCode=10000921&amp;amp;menuNo=200015&quot;&gt;도면 발행처 원문&lt;/a&gt; · &lt;a href=&quot;https://www.google.com/maps/search/?api=1&amp;amp;query=%EC%84%9C%EC%9A%B8+%EC%A4%91%EB%9E%91%EA%B5%AC+%EC%8B%A0%EB%82%B4%EB%8F%99+243-14+%EC%97%AC%EC%84%B1%EC%95%88%EC%8B%AC%EA%B3%B5%EB%8F%99%EC%B2%B4%EC%A3%BC%ED%83%9D+%EB%8B%AC%EB%A6%AC&quot;&gt;구글 지도에서 주소 확인&lt;/a&gt;&lt;/p&gt;</description><Style><IconStyle><color>ff8e7952</color><scale>1.1</scale><Icon><href>https://maps.google.com/mapfiles/kml/shapes/placemark_circle.png</href></Icon></IconStyle><LineStyle><color>ff8e7952</color><width>2</width></LineStyle><LabelStyle><scale>0.8</scale></LabelStyle></Style><LookAt><longitude>127.1098077</longitude><latitude>37.6179732</latitude><altitude>0</altitude><heading>0</heading><tilt>65</tilt><range>850</range><altitudeMode>relativeToGround</altitudeMode></LookAt><ExtendedData><Data name="siteId"><value>10000921</value></Data><Data name="precision"><value>publisher-naver-point</value></Data><Data name="source"><value>https://soco.seoul.go.kr/coHouse/pgm/home/cohome/view.do?homeCode=10000921&amp;menuNo=200015</value></Data></ExtendedData><Point><extrude>1</extrude><altitudeMode>relativeToGround</altitudeMode><coordinates>127.1098077,37.6179732,60</coordinates></Point></Placemark><Placemark id="20000441"><name>온음공동체주택</name><address>서울 마포구 성미산로5안길 15 온음공동체주택</address><description>&lt;p&gt;서울 마포구 성미산로5안길 15 온음공동체주택&lt;/p&gt;&lt;p&gt;발행처 제공 위치 · 추가 도면 3장&lt;/p&gt;&lt;p&gt;마커 높이는 표시용이며 건물 높이가 아닙니다.&lt;/p&gt;&lt;p&gt;&lt;a href=&quot;https://soco.seoul.go.kr/coHouse/pgm/home/cohome/view.do?homeCode=20000441&amp;amp;menuNo=200015&quot;&gt;도면 발행처 원문&lt;/a&gt; · &lt;a href=&quot;https://www.google.com/maps/search/?api=1&amp;amp;query=%EC%84%9C%EC%9A%B8+%EB%A7%88%ED%8F%AC%EA%B5%AC+%EC%84%B1%EB%AF%B8%EC%82%B0%EB%A1%9C5%EC%95%88%EA%B8%B8+15+%EC%98%A8%EC%9D%8C%EA%B3%B5%EB%8F%99%EC%B2%B4%EC%A3%BC%ED%83%9D&quot;&gt;구글 지도에서 주소 확인&lt;/a&gt;&lt;/p&gt;</description><Style><IconStyle><color>ff8e7952</color><scale>1.1</scale><Icon><href>https://maps.google.com/mapfiles/kml/shapes/placemark_circle.png</href></Icon></IconStyle><LineStyle><color>ff8e7952</color><width>2</width></LineStyle><LabelStyle><scale>0.8</scale></LabelStyle></Style><LookAt><longitude>126.9103709</longitude><latitude>37.5607555</latitude><altitude>0</altitude><heading>0</heading><tilt>65</tilt><range>850</range><altitudeMode>relativeToGround</altitudeMode></LookAt><ExtendedData><Data name="siteId"><value>20000441</value></Data><Data name="precision"><value>publisher-naver-point</value></Data><Data name="source"><value>https://soco.seoul.go.kr/coHouse/pgm/home/cohome/view.do?homeCode=20000441&amp;menuNo=200015</value></Data></ExtendedData><Point><extrude>1</extrude><altitudeMode>relativeToGround</altitudeMode><coordinates>126.9103709,37.5607555,60</coordinates></Point></Placemark><Placemark id="20000536"><name>암사예가</name><address>서울 강동구 고덕로24나길 7 암사예가</address><description>&lt;p&gt;서울 강동구 고덕로24나길 7 암사예가&lt;/p&gt;&lt;p&gt;발행처 제공 위치 · 추가 도면 0장&lt;/p&gt;&lt;p&gt;마커 높이는 표시용이며 건물 높이가 아닙니다.&lt;/p&gt;&lt;p&gt;&lt;a href=&quot;https://soco.seoul.go.kr/coHouse/pgm/home/cohome/view.do?homeCode=20000536&amp;amp;menuNo=200015&quot;&gt;도면 발행처 원문&lt;/a&gt; · &lt;a href=&quot;https://www.google.com/maps/search/?api=1&amp;amp;query=%EC%84%9C%EC%9A%B8+%EA%B0%95%EB%8F%99%EA%B5%AC+%EA%B3%A0%EB%8D%95%EB%A1%9C24%EB%82%98%EA%B8%B8+7+%EC%95%94%EC%82%AC%EC%98%88%EA%B0%80&quot;&gt;구글 지도에서 주소 확인&lt;/a&gt;&lt;/p&gt;</description><Style><IconStyle><color>ff8e7952</color><scale>1.1</scale><Icon><href>https://maps.google.com/mapfiles/kml/shapes/placemark_circle.png</href></Icon></IconStyle><LineStyle><color>ff8e7952</color><width>2</width></LineStyle><LabelStyle><scale>0.8</scale></LabelStyle></Style><LookAt><longitude>127.1358008</longitude><latitude>37.5528195</latitude><altitude>0</altitude><heading>0</heading><tilt>65</tilt><range>850</range><altitudeMode>relativeToGround</altitudeMode></LookAt><ExtendedData><Data name="siteId"><value>20000536</value></Data><Data name="precision"><value>publisher-naver-point</value></Data><Data name="source"><value>https://soco.seoul.go.kr/coHouse/pgm/home/cohome/view.do?homeCode=20000536&amp;menuNo=200015</value></Data></ExtendedData><Point><extrude>1</extrude><altitudeMode>relativeToGround</altitudeMode><coordinates>127.1358008,37.5528195,60</coordinates></Point></Placemark><Placemark id="10002042"><name>코이노니아 스테이</name><address>서울 강서구 강서로47길 60 코이노니아스테이</address><description>&lt;p&gt;서울 강서구 강서로47길 60 코이노니아스테이&lt;/p&gt;&lt;p&gt;발행처 제공 위치 · 추가 도면 7장&lt;/p&gt;&lt;p&gt;마커 높이는 표시용이며 건물 높이가 아닙니다.&lt;/p&gt;&lt;p&gt;&lt;a href=&quot;https://soco.seoul.go.kr/coHouse/pgm/home/cohome/view.do?homeCode=10002042&amp;amp;menuNo=200015&quot;&gt;도면 발행처 원문&lt;/a&gt; · &lt;a href=&quot;https://www.google.com/maps/search/?api=1&amp;amp;query=%EC%84%9C%EC%9A%B8+%EA%B0%95%EC%84%9C%EA%B5%AC+%EA%B0%95%EC%84%9C%EB%A1%9C47%EA%B8%B8+60+%EC%BD%94%EC%9D%B4%EB%85%B8%EB%8B%88%EC%95%84%EC%8A%A4%ED%85%8C%EC%9D%B4&quot;&gt;구글 지도에서 주소 확인&lt;/a&gt;&lt;/p&gt;</description><Style><IconStyle><color>ff8e7952</color><scale>1.1</scale><Icon><href>https://maps.google.com/mapfiles/kml/shapes/placemark_circle.png</href></Icon></IconStyle><LineStyle><color>ff8e7952</color><width>2</width></LineStyle><LabelStyle><scale>0.8</scale></LabelStyle></Style><LookAt><longitude>126.8328836</longitude><latitude>37.553125</latitude><altitude>0</altitude><heading>0</heading><tilt>65</tilt><range>850</range><altitudeMode>relativeToGround</altitudeMode></LookAt><ExtendedData><Data name="siteId"><value>10002042</value></Data><Data name="precision"><value>publisher-naver-point</value></Data><Data name="source"><value>https://soco.seoul.go.kr/coHouse/pgm/home/cohome/view.do?homeCode=10002042&amp;menuNo=200015</value></Data></ExtendedData><Point><extrude>1</extrude><altitudeMode>relativeToGround</altitudeMode><coordinates>126.8328836,37.553125,60</coordinates></Point></Placemark><Placemark id="20000570"><name>오늘공동체주택</name><address>서울 도봉구 도봉로191길 80 (도봉동 351-2)</address><description>&lt;p&gt;서울 도봉구 도봉로191길 80 (도봉동 351-2)&lt;/p&gt;&lt;p&gt;발행처 제공 위치 · 추가 도면 2장&lt;/p&gt;&lt;p&gt;마커 높이는 표시용이며 건물 높이가 아닙니다.&lt;/p&gt;&lt;p&gt;&lt;a href=&quot;https://soco.seoul.go.kr/coHouse/pgm/home/cohome/view.do?homeCode=20000570&amp;amp;menuNo=200015&quot;&gt;도면 발행처 원문&lt;/a&gt; · &lt;a href=&quot;https://www.google.com/maps/search/?api=1&amp;amp;query=%EC%84%9C%EC%9A%B8+%EB%8F%84%EB%B4%89%EA%B5%AC+%EB%8F%84%EB%B4%89%EB%A1%9C191%EA%B8%B8+80+%28%EB%8F%84%EB%B4%89%EB%8F%99+351-2%29&quot;&gt;구글 지도에서 주소 확인&lt;/a&gt;&lt;/p&gt;</description><Style><IconStyle><color>ff8e7952</color><scale>1.1</scale><Icon><href>https://maps.google.com/mapfiles/kml/shapes/placemark_circle.png</href></Icon></IconStyle><LineStyle><color>ff8e7952</color><width>2</width></LineStyle><LabelStyle><scale>0.8</scale></LabelStyle></Style><LookAt><longitude>127.0409754</longitude><latitude>37.6904247</latitude><altitude>0</altitude><heading>0</heading><tilt>65</tilt><range>850</range><altitudeMode>relativeToGround</altitudeMode></LookAt><ExtendedData><Data name="siteId"><value>20000570</value></Data><Data name="precision"><value>publisher-naver-point</value></Data><Data name="source"><value>https://soco.seoul.go.kr/coHouse/pgm/home/cohome/view.do?homeCode=20000570&amp;menuNo=200015</value></Data></ExtendedData><Point><extrude>1</extrude><altitudeMode>relativeToGround</altitudeMode><coordinates>127.0409754,37.6904247,60</coordinates></Point></Placemark></Folder><Folder><name>대략적인 지역 위치 — 건물 지점 아님</name><Placemark id="parking-159344"><name>녹틸럭스 · 지역 위치</name><address>서울시 강남구 봉은사로37길 45-11 (논현동)</address><description>&lt;p&gt;서울시 강남구 봉은사로37길 45-11 (논현동)&lt;/p&gt;&lt;p&gt;대략적인 지역 위치 · 추가 도면 13장&lt;/p&gt;&lt;p&gt;마커 높이는 표시용이며 건물 높이가 아닙니다.&lt;/p&gt;&lt;p&gt;&lt;a href=&quot;https://magazine.brique.co/project/noctilux-ciid/&quot;&gt;도면 발행처 원문&lt;/a&gt; · &lt;a href=&quot;https://www.google.com/maps/search/?api=1&amp;amp;query=%EC%84%9C%EC%9A%B8%EC%8B%9C+%EA%B0%95%EB%82%A8%EA%B5%AC+%EB%B4%89%EC%9D%80%EC%82%AC%EB%A1%9C37%EA%B8%B8+45-11+%28%EB%85%BC%ED%98%84%EB%8F%99%29&quot;&gt;구글 지도에서 주소 확인&lt;/a&gt;&lt;/p&gt;</description><Style><IconStyle><color>ff367db8</color><scale>1.1</scale><Icon><href>https://maps.google.com/mapfiles/kml/shapes/placemark_circle.png</href></Icon></IconStyle><LineStyle><color>ff367db8</color><width>2</width></LineStyle><LabelStyle><scale>0.8</scale></LabelStyle></Style><LookAt><longitude>127.0369323</longitude><latitude>37.5088724</latitude><altitude>0</altitude><heading>0</heading><tilt>65</tilt><range>850</range><altitudeMode>relativeToGround</altitudeMode></LookAt><ExtendedData><Data name="siteId"><value>parking-159344</value></Data><Data name="precision"><value>address-area</value></Data><Data name="source"><value>https://www.openstreetmap.org/way/908671828</value></Data></ExtendedData><Point><extrude>1</extrude><altitudeMode>relativeToGround</altitudeMode><coordinates>127.0369323,37.5088724,60</coordinates></Point></Placemark><Placemark id="parking-139632"><name>레이어드 하우스 · 지역 위치</name><address>서울특별시 서초구 서초동</address><description>&lt;p&gt;서울특별시 서초구 서초동&lt;/p&gt;&lt;p&gt;대략적인 지역 위치 · 추가 도면 13장&lt;/p&gt;&lt;p&gt;마커 높이는 표시용이며 건물 높이가 아닙니다.&lt;/p&gt;&lt;p&gt;&lt;a href=&quot;https://magazine.brique.co/project/g-o-architecture_layered-house/&quot;&gt;도면 발행처 원문&lt;/a&gt; · &lt;a href=&quot;https://www.google.com/maps/search/?api=1&amp;amp;query=%EC%84%9C%EC%9A%B8%ED%8A%B9%EB%B3%84%EC%8B%9C+%EC%84%9C%EC%B4%88%EA%B5%AC+%EC%84%9C%EC%B4%88%EB%8F%99&quot;&gt;구글 지도에서 주소 확인&lt;/a&gt;&lt;/p&gt;</description><Style><IconStyle><color>ff367db8</color><scale>1.1</scale><Icon><href>https://maps.google.com/mapfiles/kml/shapes/placemark_circle.png</href></Icon></IconStyle><LineStyle><color>ff367db8</color><width>2</width></LineStyle><LabelStyle><scale>0.8</scale></LabelStyle></Style><LookAt><longitude>127.0164398</longitude><latitude>37.4884513</latitude><altitude>0</altitude><heading>0</heading><tilt>65</tilt><range>850</range><altitudeMode>relativeToGround</altitudeMode></LookAt><ExtendedData><Data name="siteId"><value>parking-139632</value></Data><Data name="precision"><value>address-area</value></Data><Data name="source"><value>https://www.openstreetmap.org/relation/3880697</value></Data></ExtendedData><Point><extrude>1</extrude><altitudeMode>relativeToGround</altitudeMode><coordinates>127.0164398,37.4884513,60</coordinates></Point></Placemark><Placemark id="parking-27446"><name>후암동 복합주거 · 지역 위치</name><address>서울시 용산구 두텁바위로 Duteopbawi-ro, Yongsan-gu, Seoul, Korea</address><description>&lt;p&gt;서울시 용산구 두텁바위로 Duteopbawi-ro, Yongsan-gu, Seoul, Korea&lt;/p&gt;&lt;p&gt;대략적인 지역 위치 · 추가 도면 7장&lt;/p&gt;&lt;p&gt;마커 높이는 표시용이며 건물 높이가 아닙니다.&lt;/p&gt;&lt;p&gt;&lt;a href=&quot;https://magazine.brique.co/project/%ed%9b%84%ec%95%94%eb%8f%99-%eb%b3%b5%ed%95%a9%ec%a3%bc%ea%b1%b0-huam-dong-multiplex/&quot;&gt;도면 발행처 원문&lt;/a&gt; · &lt;a href=&quot;https://www.google.com/maps/search/?api=1&amp;amp;query=%EC%84%9C%EC%9A%B8%EC%8B%9C+%EC%9A%A9%EC%82%B0%EA%B5%AC+%EB%91%90%ED%85%81%EB%B0%94%EC%9C%84%EB%A1%9C+Duteopbawi-ro%2C+Yongsan-gu%2C+Seoul%2C+Korea&quot;&gt;구글 지도에서 주소 확인&lt;/a&gt;&lt;/p&gt;</description><Style><IconStyle><color>ff367db8</color><scale>1.1</scale><Icon><href>https://maps.google.com/mapfiles/kml/shapes/placemark_circle.png</href></Icon></IconStyle><LineStyle><color>ff367db8</color><width>2</width></LineStyle><LabelStyle><scale>0.8</scale></LabelStyle></Style><LookAt><longitude>126.9802728</longitude><latitude>37.5517514</latitude><altitude>0</altitude><heading>0</heading><tilt>65</tilt><range>850</range><altitudeMode>relativeToGround</altitudeMode></LookAt><ExtendedData><Data name="siteId"><value>parking-27446</value></Data><Data name="precision"><value>address-area</value></Data><Data name="source"><value>https://www.openstreetmap.org/way/1506939325</value></Data></ExtendedData><Point><extrude>1</extrude><altitudeMode>relativeToGround</altitudeMode><coordinates>126.9802728,37.5517514,60</coordinates></Point></Placemark><Placemark id="parking-65955"><name>서소문성지 역사박물관 · 지역 위치</name><address>서울특별시 중구 칠패로 5 5, Chilpae-ro, Jung-gu, Seoul, Korea</address><description>&lt;p&gt;서울특별시 중구 칠패로 5 5, Chilpae-ro, Jung-gu, Seoul, Korea&lt;/p&gt;&lt;p&gt;대략적인 지역 위치 · 추가 도면 6장&lt;/p&gt;&lt;p&gt;마커 높이는 표시용이며 건물 높이가 아닙니다.&lt;/p&gt;&lt;p&gt;&lt;a href=&quot;https://magazine.brique.co/project/%ec%84%9c%ec%86%8c%eb%ac%b8%ec%84%b1%ec%a7%80-%ec%97%ad%ec%82%ac%eb%b0%95%eb%ac%bc%ea%b4%80/&quot;&gt;도면 발행처 원문&lt;/a&gt; · &lt;a href=&quot;https://www.google.com/maps/search/?api=1&amp;amp;query=%EC%84%9C%EC%9A%B8%ED%8A%B9%EB%B3%84%EC%8B%9C+%EC%A4%91%EA%B5%AC+%EC%B9%A0%ED%8C%A8%EB%A1%9C+5+5%2C+Chilpae-ro%2C+Jung-gu%2C+Seoul%2C+Korea&quot;&gt;구글 지도에서 주소 확인&lt;/a&gt;&lt;/p&gt;</description><Style><IconStyle><color>ff367db8</color><scale>1.1</scale><Icon><href>https://maps.google.com/mapfiles/kml/shapes/placemark_circle.png</href></Icon></IconStyle><LineStyle><color>ff367db8</color><width>2</width></LineStyle><LabelStyle><scale>0.8</scale></LabelStyle></Style><LookAt><longitude>126.9730689</longitude><latitude>37.5597268</latitude><altitude>0</altitude><heading>0</heading><tilt>65</tilt><range>850</range><altitudeMode>relativeToGround</altitudeMode></LookAt><ExtendedData><Data name="siteId"><value>parking-65955</value></Data><Data name="precision"><value>address-area</value></Data><Data name="source"><value>https://www.openstreetmap.org/way/516948900</value></Data></ExtendedData><Point><extrude>1</extrude><altitudeMode>relativeToGround</altitudeMode><coordinates>126.9730689,37.5597268,60</coordinates></Point></Placemark><Placemark id="parking-57413"><name>스퀘어 앤 트라이앵글 하우스 · 지역 위치</name><address>서울시 서대문구 연희동 Yeonhui-dong, Seodaemun-gu, Seoul, Korea</address><description>&lt;p&gt;서울시 서대문구 연희동 Yeonhui-dong, Seodaemun-gu, Seoul, Korea&lt;/p&gt;&lt;p&gt;대략적인 지역 위치 · 추가 도면 2장&lt;/p&gt;&lt;p&gt;마커 높이는 표시용이며 건물 높이가 아닙니다.&lt;/p&gt;&lt;p&gt;&lt;a href=&quot;https://magazine.brique.co/project/%ec%8a%a4%ed%80%98%ec%96%b4-%ec%95%a4-%ed%8a%b8%eb%9d%bc%ec%9d%b4%ec%95%b5%ea%b8%80-%ed%95%98%ec%9a%b0%ec%8a%a4-square-triangle-house/&quot;&gt;도면 발행처 원문&lt;/a&gt; · &lt;a href=&quot;https://www.google.com/maps/search/?api=1&amp;amp;query=%EC%84%9C%EC%9A%B8%EC%8B%9C+%EC%84%9C%EB%8C%80%EB%AC%B8%EA%B5%AC+%EC%97%B0%ED%9D%AC%EB%8F%99+Yeonhui-dong%2C+Seodaemun-gu%2C+Seoul%2C+Korea&quot;&gt;구글 지도에서 주소 확인&lt;/a&gt;&lt;/p&gt;</description><Style><IconStyle><color>ff367db8</color><scale>1.1</scale><Icon><href>https://maps.google.com/mapfiles/kml/shapes/placemark_circle.png</href></Icon></IconStyle><LineStyle><color>ff367db8</color><width>2</width></LineStyle><LabelStyle><scale>0.8</scale></LabelStyle></Style><LookAt><longitude>126.93084</longitude><latitude>37.57234</latitude><altitude>0</altitude><heading>0</heading><tilt>65</tilt><range>850</range><altitudeMode>relativeToGround</altitudeMode></LookAt><ExtendedData><Data name="siteId"><value>parking-57413</value></Data><Data name="precision"><value>address-area</value></Data><Data name="source"><value>https://www.openstreetmap.org/relation/3887532</value></Data></ExtendedData><Point><extrude>1</extrude><altitudeMode>relativeToGround</altitudeMode><coordinates>126.93084,37.57234,60</coordinates></Point></Placemark><Placemark id="parking-63653"><name>유취헌 · 지역 위치</name><address>서울특별시 서초구 우면동 Umyeon-dong, Seocho-gu, Seoul, Korea</address><description>&lt;p&gt;서울특별시 서초구 우면동 Umyeon-dong, Seocho-gu, Seoul, Korea&lt;/p&gt;&lt;p&gt;대략적인 지역 위치 · 추가 도면 6장&lt;/p&gt;&lt;p&gt;마커 높이는 표시용이며 건물 높이가 아닙니다.&lt;/p&gt;&lt;p&gt;&lt;a href=&quot;https://magazine.brique.co/project/%ec%9c%a0%ec%b7%a8%ed%97%8c-%e5%b9%bd%e8%b6%a3%e8%bb%92/&quot;&gt;도면 발행처 원문&lt;/a&gt; · &lt;a href=&quot;https://www.google.com/maps/search/?api=1&amp;amp;query=%EC%84%9C%EC%9A%B8%ED%8A%B9%EB%B3%84%EC%8B%9C+%EC%84%9C%EC%B4%88%EA%B5%AC+%EC%9A%B0%EB%A9%B4%EB%8F%99+Umyeon-dong%2C+Seocho-gu%2C+Seoul%2C+Korea&quot;&gt;구글 지도에서 주소 확인&lt;/a&gt;&lt;/p&gt;</description><Style><IconStyle><color>ff367db8</color><scale>1.1</scale><Icon><href>https://maps.google.com/mapfiles/kml/shapes/placemark_circle.png</href></Icon></IconStyle><LineStyle><color>ff367db8</color><width>2</width></LineStyle><LabelStyle><scale>0.8</scale></LabelStyle></Style><LookAt><longitude>127.0188666</longitude><latitude>37.4647545</latitude><altitude>0</altitude><heading>0</heading><tilt>65</tilt><range>850</range><altitudeMode>relativeToGround</altitudeMode></LookAt><ExtendedData><Data name="siteId"><value>parking-63653</value></Data><Data name="precision"><value>address-area</value></Data><Data name="source"><value>https://www.openstreetmap.org/node/415155276</value></Data></ExtendedData><Point><extrude>1</extrude><altitudeMode>relativeToGround</altitudeMode><coordinates>127.0188666,37.4647545,60</coordinates></Point></Placemark><Placemark id="parking-52328"><name>평창동 공동주택 · 지역 위치</name><address>서울특별시 종로구 평창동 Pyeongchang-dong, Jongno-gu, Seoul, Korea</address><description>&lt;p&gt;서울특별시 종로구 평창동 Pyeongchang-dong, Jongno-gu, Seoul, Korea&lt;/p&gt;&lt;p&gt;대략적인 지역 위치 · 추가 도면 7장&lt;/p&gt;&lt;p&gt;마커 높이는 표시용이며 건물 높이가 아닙니다.&lt;/p&gt;&lt;p&gt;&lt;a href=&quot;https://magazine.brique.co/project/%ed%8f%89%ec%b0%bd%eb%8f%99-%ea%b3%b5%eb%8f%99%ec%a3%bc%ed%83%9d/&quot;&gt;도면 발행처 원문&lt;/a&gt; · &lt;a href=&quot;https://www.google.com/maps/search/?api=1&amp;amp;query=%EC%84%9C%EC%9A%B8%ED%8A%B9%EB%B3%84%EC%8B%9C+%EC%A2%85%EB%A1%9C%EA%B5%AC+%ED%8F%89%EC%B0%BD%EB%8F%99+Pyeongchang-dong%2C+Jongno-gu%2C+Seoul%2C+Korea&quot;&gt;구글 지도에서 주소 확인&lt;/a&gt;&lt;/p&gt;</description><Style><IconStyle><color>ff367db8</color><scale>1.1</scale><Icon><href>https://maps.google.com/mapfiles/kml/shapes/placemark_circle.png</href></Icon></IconStyle><LineStyle><color>ff367db8</color><width>2</width></LineStyle><LabelStyle><scale>0.8</scale></LabelStyle></Style><LookAt><longitude>126.9676478</longitude><latitude>37.6159731</latitude><altitude>0</altitude><heading>0</heading><tilt>65</tilt><range>850</range><altitudeMode>relativeToGround</altitudeMode></LookAt><ExtendedData><Data name="siteId"><value>parking-52328</value></Data><Data name="precision"><value>address-area</value></Data><Data name="source"><value>https://www.openstreetmap.org/relation/3883991</value></Data></ExtendedData><Point><extrude>1</extrude><altitudeMode>relativeToGround</altitudeMode><coordinates>126.9676478,37.6159731,60</coordinates></Point></Placemark><Placemark id="parking-49698"><name>성북동 회색집 · 지역 위치</name><address>서울시 성북구 성북로8다길 Seongbuk-ro 8da-gil, Seongbuk-gu, Seoul, Korea</address><description>&lt;p&gt;서울시 성북구 성북로8다길 Seongbuk-ro 8da-gil, Seongbuk-gu, Seoul, Korea&lt;/p&gt;&lt;p&gt;대략적인 지역 위치 · 추가 도면 3장&lt;/p&gt;&lt;p&gt;마커 높이는 표시용이며 건물 높이가 아닙니다.&lt;/p&gt;&lt;p&gt;&lt;a href=&quot;https://magazine.brique.co/project/%ec%84%b1%eb%b6%81%eb%8f%99-%ed%9a%8c%ec%83%89%ec%a7%91/&quot;&gt;도면 발행처 원문&lt;/a&gt; · &lt;a href=&quot;https://www.google.com/maps/search/?api=1&amp;amp;query=%EC%84%9C%EC%9A%B8%EC%8B%9C+%EC%84%B1%EB%B6%81%EA%B5%AC+%EC%84%B1%EB%B6%81%EB%A1%9C8%EB%8B%A4%EA%B8%B8+Seongbuk-ro+8da-gil%2C+Seongbuk-gu%2C+Seoul%2C+Korea&quot;&gt;구글 지도에서 주소 확인&lt;/a&gt;&lt;/p&gt;</description><Style><IconStyle><color>ff367db8</color><scale>1.1</scale><Icon><href>https://maps.google.com/mapfiles/kml/shapes/placemark_circle.png</href></Icon></IconStyle><LineStyle><color>ff367db8</color><width>2</width></LineStyle><LabelStyle><scale>0.8</scale></LabelStyle></Style><LookAt><longitude>127.005912</longitude><latitude>37.593266</latitude><altitude>0</altitude><heading>0</heading><tilt>65</tilt><range>850</range><altitudeMode>relativeToGround</altitudeMode></LookAt><ExtendedData><Data name="siteId"><value>parking-49698</value></Data><Data name="precision"><value>address-area</value></Data><Data name="source"><value>https://www.openstreetmap.org/way/381080939</value></Data></ExtendedData><Point><extrude>1</extrude><altitudeMode>relativeToGround</altitudeMode><coordinates>127.005912,37.593266,60</coordinates></Point></Placemark><Placemark id="parking-43658"><name>리을 집 · 지역 위치</name><address>서울시 광진구 군자동 Gunja-dong, Gwangjin-gu, Seoul, Korea</address><description>&lt;p&gt;서울시 광진구 군자동 Gunja-dong, Gwangjin-gu, Seoul, Korea&lt;/p&gt;&lt;p&gt;대략적인 지역 위치 · 추가 도면 4장&lt;/p&gt;&lt;p&gt;마커 높이는 표시용이며 건물 높이가 아닙니다.&lt;/p&gt;&lt;p&gt;&lt;a href=&quot;https://magazine.brique.co/project/%e3%84%b9-%eb%a6%ac%ec%9d%84-%ec%a7%91/&quot;&gt;도면 발행처 원문&lt;/a&gt; · &lt;a href=&quot;https://www.google.com/maps/search/?api=1&amp;amp;query=%EC%84%9C%EC%9A%B8%EC%8B%9C+%EA%B4%91%EC%A7%84%EA%B5%AC+%EA%B5%B0%EC%9E%90%EB%8F%99+Gunja-dong%2C+Gwangjin-gu%2C+Seoul%2C+Korea&quot;&gt;구글 지도에서 주소 확인&lt;/a&gt;&lt;/p&gt;</description><Style><IconStyle><color>ff367db8</color><scale>1.1</scale><Icon><href>https://maps.google.com/mapfiles/kml/shapes/placemark_circle.png</href></Icon></IconStyle><LineStyle><color>ff367db8</color><width>2</width></LineStyle><LabelStyle><scale>0.8</scale></LabelStyle></Style><LookAt><longitude>127.071936</longitude><latitude>37.5532345</latitude><altitude>0</altitude><heading>0</heading><tilt>65</tilt><range>850</range><altitudeMode>relativeToGround</altitudeMode></LookAt><ExtendedData><Data name="siteId"><value>parking-43658</value></Data><Data name="precision"><value>address-area</value></Data><Data name="source"><value>https://www.openstreetmap.org/relation/3881561</value></Data></ExtendedData><Point><extrude>1</extrude><altitudeMode>relativeToGround</altitudeMode><coordinates>127.071936,37.5532345,60</coordinates></Point></Placemark><Placemark id="parking-45519"><name>신공덕동 Micro Housing S · 지역 위치</name><address>서울시 마포구 백범로39길 Baekbeom-ro 39-gil, Mapo-gu, Seoul, Korea</address><description>&lt;p&gt;서울시 마포구 백범로39길 Baekbeom-ro 39-gil, Mapo-gu, Seoul, Korea&lt;/p&gt;&lt;p&gt;대략적인 지역 위치 · 추가 도면 2장&lt;/p&gt;&lt;p&gt;마커 높이는 표시용이며 건물 높이가 아닙니다.&lt;/p&gt;&lt;p&gt;&lt;a href=&quot;https://magazine.brique.co/project/%ec%8b%a0%ea%b3%b5%eb%8d%95%eb%8f%99-%ed%98%91%ec%86%8c%ec%a3%bc%ed%83%9d-micro-housing-s/&quot;&gt;도면 발행처 원문&lt;/a&gt; · &lt;a href=&quot;https://www.google.com/maps/search/?api=1&amp;amp;query=%EC%84%9C%EC%9A%B8%EC%8B%9C+%EB%A7%88%ED%8F%AC%EA%B5%AC+%EB%B0%B1%EB%B2%94%EB%A1%9C39%EA%B8%B8+Baekbeom-ro+39-gil%2C+Mapo-gu%2C+Seoul%2C+Korea&quot;&gt;구글 지도에서 주소 확인&lt;/a&gt;&lt;/p&gt;</description><Style><IconStyle><color>ff367db8</color><scale>1.1</scale><Icon><href>https://maps.google.com/mapfiles/kml/shapes/placemark_circle.png</href></Icon></IconStyle><LineStyle><color>ff367db8</color><width>2</width></LineStyle><LabelStyle><scale>0.8</scale></LabelStyle></Style><LookAt><longitude>126.9566037</longitude><latitude>37.5417265</latitude><altitude>0</altitude><heading>0</heading><tilt>65</tilt><range>850</range><altitudeMode>relativeToGround</altitudeMode></LookAt><ExtendedData><Data name="siteId"><value>parking-45519</value></Data><Data name="precision"><value>address-area</value></Data><Data name="source"><value>https://www.openstreetmap.org/way/464249406</value></Data></ExtendedData><Point><extrude>1</extrude><altitudeMode>relativeToGround</altitudeMode><coordinates>126.9566037,37.5417265,60</coordinates></Point></Placemark><Placemark id="parking-39327"><name>이오스 · 지역 위치</name><address>서울시 용산구 이태원동 Itaewon-dong, Yongsan-gu, Seoul, Korea</address><description>&lt;p&gt;서울시 용산구 이태원동 Itaewon-dong, Yongsan-gu, Seoul, Korea&lt;/p&gt;&lt;p&gt;대략적인 지역 위치 · 추가 도면 3장&lt;/p&gt;&lt;p&gt;마커 높이는 표시용이며 건물 높이가 아닙니다.&lt;/p&gt;&lt;p&gt;&lt;a href=&quot;https://magazine.brique.co/project/%ec%9d%b4%ec%98%a4%ec%8a%a4-eos/&quot;&gt;도면 발행처 원문&lt;/a&gt; · &lt;a href=&quot;https://www.google.com/maps/search/?api=1&amp;amp;query=%EC%84%9C%EC%9A%B8%EC%8B%9C+%EC%9A%A9%EC%82%B0%EA%B5%AC+%EC%9D%B4%ED%83%9C%EC%9B%90%EB%8F%99+Itaewon-dong%2C+Yongsan-gu%2C+Seoul%2C+Korea&quot;&gt;구글 지도에서 주소 확인&lt;/a&gt;&lt;/p&gt;</description><Style><IconStyle><color>ff367db8</color><scale>1.1</scale><Icon><href>https://maps.google.com/mapfiles/kml/shapes/placemark_circle.png</href></Icon></IconStyle><LineStyle><color>ff367db8</color><width>2</width></LineStyle><LabelStyle><scale>0.8</scale></LabelStyle></Style><LookAt><longitude>126.992</longitude><latitude>37.53842</latitude><altitude>0</altitude><heading>0</heading><tilt>65</tilt><range>850</range><altitudeMode>relativeToGround</altitudeMode></LookAt><ExtendedData><Data name="siteId"><value>parking-39327</value></Data><Data name="precision"><value>address-area</value></Data><Data name="source"><value>https://www.openstreetmap.org/node/415153778</value></Data></ExtendedData><Point><extrude>1</extrude><altitudeMode>relativeToGround</altitudeMode><coordinates>126.992,37.53842,60</coordinates></Point></Placemark><Placemark id="parking-35314"><name>논현 109 · 지역 위치</name><address>서울시 강남구 논현동 Nonhyeon dong, Gangnam-gu, Seoul, Korea</address><description>&lt;p&gt;서울시 강남구 논현동 Nonhyeon dong, Gangnam-gu, Seoul, Korea&lt;/p&gt;&lt;p&gt;대략적인 지역 위치 · 추가 도면 10장&lt;/p&gt;&lt;p&gt;마커 높이는 표시용이며 건물 높이가 아닙니다.&lt;/p&gt;&lt;p&gt;&lt;a href=&quot;https://magazine.brique.co/project/%eb%85%bc%ed%98%84-109/&quot;&gt;도면 발행처 원문&lt;/a&gt; · &lt;a href=&quot;https://www.google.com/maps/search/?api=1&amp;amp;query=%EC%84%9C%EC%9A%B8%EC%8B%9C+%EA%B0%95%EB%82%A8%EA%B5%AC+%EB%85%BC%ED%98%84%EB%8F%99+Nonhyeon+dong%2C+Gangnam-gu%2C+Seoul%2C+Korea&quot;&gt;구글 지도에서 주소 확인&lt;/a&gt;&lt;/p&gt;</description><Style><IconStyle><color>ff367db8</color><scale>1.1</scale><Icon><href>https://maps.google.com/mapfiles/kml/shapes/placemark_circle.png</href></Icon></IconStyle><LineStyle><color>ff367db8</color><width>2</width></LineStyle><LabelStyle><scale>0.8</scale></LabelStyle></Style><LookAt><longitude>127.0294935</longitude><latitude>37.5123018</latitude><altitude>0</altitude><heading>0</heading><tilt>65</tilt><range>850</range><altitudeMode>relativeToGround</altitudeMode></LookAt><ExtendedData><Data name="siteId"><value>parking-35314</value></Data><Data name="precision"><value>address-area</value></Data><Data name="source"><value>https://www.openstreetmap.org/node/415153961</value></Data></ExtendedData><Point><extrude>1</extrude><altitudeMode>relativeToGround</altitudeMode><coordinates>127.0294935,37.5123018,60</coordinates></Point></Placemark><Placemark id="parking-146002"><name>논현동 P스튜디오 · 지역 위치</name><address>서울특별시 강남구 논현동</address><description>&lt;p&gt;서울특별시 강남구 논현동&lt;/p&gt;&lt;p&gt;대략적인 지역 위치 · 추가 도면 3장&lt;/p&gt;&lt;p&gt;마커 높이는 표시용이며 건물 높이가 아닙니다.&lt;/p&gt;&lt;p&gt;&lt;a href=&quot;https://magazine.brique.co/project/hwang-june-architect_nonhyeon-dong-p-studio/&quot;&gt;도면 발행처 원문&lt;/a&gt; · &lt;a href=&quot;https://www.google.com/maps/search/?api=1&amp;amp;query=%EC%84%9C%EC%9A%B8%ED%8A%B9%EB%B3%84%EC%8B%9C+%EA%B0%95%EB%82%A8%EA%B5%AC+%EB%85%BC%ED%98%84%EB%8F%99&quot;&gt;구글 지도에서 주소 확인&lt;/a&gt;&lt;/p&gt;</description><Style><IconStyle><color>ff367db8</color><scale>1.1</scale><Icon><href>https://maps.google.com/mapfiles/kml/shapes/placemark_circle.png</href></Icon></IconStyle><LineStyle><color>ff367db8</color><width>2</width></LineStyle><LabelStyle><scale>0.8</scale></LabelStyle></Style><LookAt><longitude>127.0294935</longitude><latitude>37.5123018</latitude><altitude>0</altitude><heading>0</heading><tilt>65</tilt><range>850</range><altitudeMode>relativeToGround</altitudeMode></LookAt><ExtendedData><Data name="siteId"><value>parking-146002</value></Data><Data name="precision"><value>address-area</value></Data><Data name="source"><value>https://www.openstreetmap.org/node/415153961</value></Data></ExtendedData><Point><extrude>1</extrude><altitudeMode>relativeToGround</altitudeMode><coordinates>127.0294935,37.5123018,60</coordinates></Point></Placemark><Placemark id="parking-7128"><name>효창동 첫 집 · 지역 위치</name><address>서울시 용산구 효창동 Hyochangdong, Yongsangu, Seoul, Korea</address><description>&lt;p&gt;서울시 용산구 효창동 Hyochangdong, Yongsangu, Seoul, Korea&lt;/p&gt;&lt;p&gt;대략적인 지역 위치 · 추가 도면 2장&lt;/p&gt;&lt;p&gt;마커 높이는 표시용이며 건물 높이가 아닙니다.&lt;/p&gt;&lt;p&gt;&lt;a href=&quot;https://magazine.brique.co/project/%ed%9a%a8%ec%b0%bd%eb%8f%99%ec%b2%ab%ec%a7%91-first-house-hyochangdong/&quot;&gt;도면 발행처 원문&lt;/a&gt; · &lt;a href=&quot;https://www.google.com/maps/search/?api=1&amp;amp;query=%EC%84%9C%EC%9A%B8%EC%8B%9C+%EC%9A%A9%EC%82%B0%EA%B5%AC+%ED%9A%A8%EC%B0%BD%EB%8F%99+Hyochangdong%2C+Yongsangu%2C+Seoul%2C+Korea&quot;&gt;구글 지도에서 주소 확인&lt;/a&gt;&lt;/p&gt;</description><Style><IconStyle><color>ff367db8</color><scale>1.1</scale><Icon><href>https://maps.google.com/mapfiles/kml/shapes/placemark_circle.png</href></Icon></IconStyle><LineStyle><color>ff367db8</color><width>2</width></LineStyle><LabelStyle><scale>0.8</scale></LabelStyle></Style><LookAt><longitude>126.96037</longitude><latitude>37.54341</latitude><altitude>0</altitude><heading>0</heading><tilt>65</tilt><range>850</range><altitudeMode>relativeToGround</altitudeMode></LookAt><ExtendedData><Data name="siteId"><value>parking-7128</value></Data><Data name="precision"><value>address-area</value></Data><Data name="source"><value>https://www.openstreetmap.org/relation/3884166</value></Data></ExtendedData><Point><extrude>1</extrude><altitudeMode>relativeToGround</altitudeMode><coordinates>126.96037,37.54341,60</coordinates></Point></Placemark><Placemark id="parking-15333"><name>능동 하늘집 · 지역 위치</name><address>서울시 광진구 능동 Neung-dong, Gwangjin-gu, Seoul</address><description>&lt;p&gt;서울시 광진구 능동 Neung-dong, Gwangjin-gu, Seoul&lt;/p&gt;&lt;p&gt;대략적인 지역 위치 · 추가 도면 1장&lt;/p&gt;&lt;p&gt;마커 높이는 표시용이며 건물 높이가 아닙니다.&lt;/p&gt;&lt;p&gt;&lt;a href=&quot;https://magazine.brique.co/project/%eb%8a%a5%eb%8f%99%ed%95%98%eb%8a%98%ec%a7%91-sky-house/&quot;&gt;도면 발행처 원문&lt;/a&gt; · &lt;a href=&quot;https://www.google.com/maps/search/?api=1&amp;amp;query=%EC%84%9C%EC%9A%B8%EC%8B%9C+%EA%B4%91%EC%A7%84%EA%B5%AC+%EB%8A%A5%EB%8F%99+Neung-dong%2C+Gwangjin-gu%2C+Seoul&quot;&gt;구글 지도에서 주소 확인&lt;/a&gt;&lt;/p&gt;</description><Style><IconStyle><color>ff367db8</color><scale>1.1</scale><Icon><href>https://maps.google.com/mapfiles/kml/shapes/placemark_circle.png</href></Icon></IconStyle><LineStyle><color>ff367db8</color><width>2</width></LineStyle><LabelStyle><scale>0.8</scale></LabelStyle></Style><LookAt><longitude>127.08156</longitude><latitude>37.55444</latitude><altitude>0</altitude><heading>0</heading><tilt>65</tilt><range>850</range><altitudeMode>relativeToGround</altitudeMode></LookAt><ExtendedData><Data name="siteId"><value>parking-15333</value></Data><Data name="precision"><value>address-area</value></Data><Data name="source"><value>https://www.openstreetmap.org/relation/3881562</value></Data></ExtendedData><Point><extrude>1</extrude><altitudeMode>relativeToGround</altitudeMode><coordinates>127.08156,37.55444,60</coordinates></Point></Placemark><Placemark id="parking-146396"><name>카페 목적지 · 지역 위치</name><address>경기도 안성시 양성면 이화1길 33-4</address><description>&lt;p&gt;경기도 안성시 양성면 이화1길 33-4&lt;/p&gt;&lt;p&gt;대략적인 지역 위치 · 추가 도면 5장&lt;/p&gt;&lt;p&gt;마커 높이는 표시용이며 건물 높이가 아닙니다.&lt;/p&gt;&lt;p&gt;&lt;a href=&quot;https://magazine.brique.co/project/ima-architects_cafe-mokjeokji/&quot;&gt;도면 발행처 원문&lt;/a&gt; · &lt;a href=&quot;https://www.google.com/maps/search/?api=1&amp;amp;query=%EA%B2%BD%EA%B8%B0%EB%8F%84+%EC%95%88%EC%84%B1%EC%8B%9C+%EC%96%91%EC%84%B1%EB%A9%B4+%EC%9D%B4%ED%99%941%EA%B8%B8+33-4&quot;&gt;구글 지도에서 주소 확인&lt;/a&gt;&lt;/p&gt;</description><Style><IconStyle><color>ff367db8</color><scale>1.1</scale><Icon><href>https://maps.google.com/mapfiles/kml/shapes/placemark_circle.png</href></Icon></IconStyle><LineStyle><color>ff367db8</color><width>2</width></LineStyle><LabelStyle><scale>0.8</scale></LabelStyle></Style><LookAt><longitude>127.21486</longitude><latitude>37.07156</latitude><altitude>0</altitude><heading>0</heading><tilt>65</tilt><range>850</range><altitudeMode>relativeToGround</altitudeMode></LookAt><ExtendedData><Data name="siteId"><value>parking-146396</value></Data><Data name="precision"><value>address-area</value></Data><Data name="source"><value>https://www.openstreetmap.org/relation/20272380</value></Data></ExtendedData><Point><extrude>1</extrude><altitudeMode>relativeToGround</altitudeMode><coordinates>127.21486,37.07156,60</coordinates></Point></Placemark><Placemark id="parking-143447"><name>서오재 · 지역 위치</name><address>인천광역시 중구 찬들로</address><description>&lt;p&gt;인천광역시 중구 찬들로&lt;/p&gt;&lt;p&gt;대략적인 지역 위치 · 추가 도면 1장&lt;/p&gt;&lt;p&gt;마커 높이는 표시용이며 건물 높이가 아닙니다.&lt;/p&gt;&lt;p&gt;&lt;a href=&quot;https://magazine.brique.co/project/designbug-seo-oh-jae/&quot;&gt;도면 발행처 원문&lt;/a&gt; · &lt;a href=&quot;https://www.google.com/maps/search/?api=1&amp;amp;query=%EC%9D%B8%EC%B2%9C%EA%B4%91%EC%97%AD%EC%8B%9C+%EC%A4%91%EA%B5%AC+%EC%B0%AC%EB%93%A4%EB%A1%9C&quot;&gt;구글 지도에서 주소 확인&lt;/a&gt;&lt;/p&gt;</description><Style><IconStyle><color>ff367db8</color><scale>1.1</scale><Icon><href>https://maps.google.com/mapfiles/kml/shapes/placemark_circle.png</href></Icon></IconStyle><LineStyle><color>ff367db8</color><width>2</width></LineStyle><LabelStyle><scale>0.8</scale></LabelStyle></Style><LookAt><longitude>126.6214081</longitude><latitude>37.4735389</latitude><altitude>0</altitude><heading>0</heading><tilt>65</tilt><range>850</range><altitudeMode>relativeToGround</altitudeMode></LookAt><ExtendedData><Data name="siteId"><value>parking-143447</value></Data><Data name="precision"><value>address-area</value></Data><Data name="source"><value>https://www.openstreetmap.org/node/415154839</value></Data></ExtendedData><Point><extrude>1</extrude><altitudeMode>relativeToGround</altitudeMode><coordinates>126.6214081,37.4735389,60</coordinates></Point></Placemark><Placemark id="parking-140714"><name>비례교회 · 지역 위치</name><address>충청남도 금산군 추부면 골말길 54</address><description>&lt;p&gt;충청남도 금산군 추부면 골말길 54&lt;/p&gt;&lt;p&gt;대략적인 지역 위치 · 추가 도면 4장&lt;/p&gt;&lt;p&gt;마커 높이는 표시용이며 건물 높이가 아닙니다.&lt;/p&gt;&lt;p&gt;&lt;a href=&quot;https://magazine.brique.co/project/sml_birye-church/&quot;&gt;도면 발행처 원문&lt;/a&gt; · &lt;a href=&quot;https://www.google.com/maps/search/?api=1&amp;amp;query=%EC%B6%A9%EC%B2%AD%EB%82%A8%EB%8F%84+%EA%B8%88%EC%82%B0%EA%B5%B0+%EC%B6%94%EB%B6%80%EB%A9%B4+%EA%B3%A8%EB%A7%90%EA%B8%B8+54&quot;&gt;구글 지도에서 주소 확인&lt;/a&gt;&lt;/p&gt;</description><Style><IconStyle><color>ff367db8</color><scale>1.1</scale><Icon><href>https://maps.google.com/mapfiles/kml/shapes/placemark_circle.png</href></Icon></IconStyle><LineStyle><color>ff367db8</color><width>2</width></LineStyle><LabelStyle><scale>0.8</scale></LabelStyle></Style><LookAt><longitude>127.4923916</longitude><latitude>36.2065355</latitude><altitude>0</altitude><heading>0</heading><tilt>65</tilt><range>850</range><altitudeMode>relativeToGround</altitudeMode></LookAt><ExtendedData><Data name="siteId"><value>parking-140714</value></Data><Data name="precision"><value>address-area</value></Data><Data name="source"><value>https://www.openstreetmap.org/node/415162990</value></Data></ExtendedData><Point><extrude>1</extrude><altitudeMode>relativeToGround</altitudeMode><coordinates>127.4923916,36.2065355,60</coordinates></Point></Placemark><Placemark id="parking-131601"><name>대천항 관공선 통합사무실 · 지역 위치</name><address>충청남도 보령시 해안로 760</address><description>&lt;p&gt;충청남도 보령시 해안로 760&lt;/p&gt;&lt;p&gt;대략적인 지역 위치 · 추가 도면 11장&lt;/p&gt;&lt;p&gt;마커 높이는 표시용이며 건물 높이가 아닙니다.&lt;/p&gt;&lt;p&gt;&lt;a href=&quot;https://magazine.brique.co/project/kode-architects_public-vessel-office-of-daecheonhang-port/&quot;&gt;도면 발행처 원문&lt;/a&gt; · &lt;a href=&quot;https://www.google.com/maps/search/?api=1&amp;amp;query=%EC%B6%A9%EC%B2%AD%EB%82%A8%EB%8F%84+%EB%B3%B4%EB%A0%B9%EC%8B%9C+%ED%95%B4%EC%95%88%EB%A1%9C+760&quot;&gt;구글 지도에서 주소 확인&lt;/a&gt;&lt;/p&gt;</description><Style><IconStyle><color>ff367db8</color><scale>1.1</scale><Icon><href>https://maps.google.com/mapfiles/kml/shapes/placemark_circle.png</href></Icon></IconStyle><LineStyle><color>ff367db8</color><width>2</width></LineStyle><LabelStyle><scale>0.8</scale></LabelStyle></Style><LookAt><longitude>126.532777</longitude><latitude>36.337438</latitude><altitude>0</altitude><heading>0</heading><tilt>65</tilt><range>850</range><altitudeMode>relativeToGround</altitudeMode></LookAt><ExtendedData><Data name="siteId"><value>parking-131601</value></Data><Data name="precision"><value>address-area</value></Data><Data name="source"><value>https://www.openstreetmap.org/way/171584201</value></Data></ExtendedData><Point><extrude>1</extrude><altitudeMode>relativeToGround</altitudeMode><coordinates>126.532777,36.337438,60</coordinates></Point></Placemark><Placemark id="parking-24500"><name>판교 K&amp;L 주택 · 지역 위치</name><address>경기도 성남시 분당구 판교동 Pangyo-dong, Bundang-gu, Seongnam-si, Gyeonggi-do, Korea</address><description>&lt;p&gt;경기도 성남시 분당구 판교동 Pangyo-dong, Bundang-gu, Seongnam-si, Gyeonggi-do, Korea&lt;/p&gt;&lt;p&gt;대략적인 지역 위치 · 추가 도면 12장&lt;/p&gt;&lt;p&gt;마커 높이는 표시용이며 건물 높이가 아닙니다.&lt;/p&gt;&lt;p&gt;&lt;a href=&quot;https://magazine.brique.co/project/%ed%8c%90%ea%b5%90-kl-%ec%a3%bc%ed%83%9d-pangyo-kl-house/&quot;&gt;도면 발행처 원문&lt;/a&gt; · &lt;a href=&quot;https://www.google.com/maps/search/?api=1&amp;amp;query=%EA%B2%BD%EA%B8%B0%EB%8F%84+%EC%84%B1%EB%82%A8%EC%8B%9C+%EB%B6%84%EB%8B%B9%EA%B5%AC+%ED%8C%90%EA%B5%90%EB%8F%99+Pangyo-dong%2C+Bundang-gu%2C+Seongnam-si%2C+Gyeonggi-do%2C+Korea&quot;&gt;구글 지도에서 주소 확인&lt;/a&gt;&lt;/p&gt;</description><Style><IconStyle><color>ff367db8</color><scale>1.1</scale><Icon><href>https://maps.google.com/mapfiles/kml/shapes/placemark_circle.png</href></Icon></IconStyle><LineStyle><color>ff367db8</color><width>2</width></LineStyle><LabelStyle><scale>0.8</scale></LabelStyle></Style><LookAt><longitude>127.0985928</longitude><latitude>37.3899495</latitude><altitude>0</altitude><heading>0</heading><tilt>65</tilt><range>850</range><altitudeMode>relativeToGround</altitudeMode></LookAt><ExtendedData><Data name="siteId"><value>parking-24500</value></Data><Data name="precision"><value>address-area</value></Data><Data name="source"><value>https://www.openstreetmap.org/node/415155262</value></Data></ExtendedData><Point><extrude>1</extrude><altitudeMode>relativeToGround</altitudeMode><coordinates>127.0985928,37.3899495,60</coordinates></Point></Placemark><Placemark id="parking-90014"><name>스킵플로어 하우스 · 지역 위치</name><address>울산시 중구 약사동 Yaksa-dong, Jung-gu, Ulsan, Korea</address><description>&lt;p&gt;울산시 중구 약사동 Yaksa-dong, Jung-gu, Ulsan, Korea&lt;/p&gt;&lt;p&gt;대략적인 지역 위치 · 추가 도면 2장&lt;/p&gt;&lt;p&gt;마커 높이는 표시용이며 건물 높이가 아닙니다.&lt;/p&gt;&lt;p&gt;&lt;a href=&quot;https://magazine.brique.co/project/skipfloorhouse/&quot;&gt;도면 발행처 원문&lt;/a&gt; · &lt;a href=&quot;https://www.google.com/maps/search/?api=1&amp;amp;query=%EC%9A%B8%EC%82%B0%EC%8B%9C+%EC%A4%91%EA%B5%AC+%EC%95%BD%EC%82%AC%EB%8F%99+Yaksa-dong%2C+Jung-gu%2C+Ulsan%2C+Korea&quot;&gt;구글 지도에서 주소 확인&lt;/a&gt;&lt;/p&gt;</description><Style><IconStyle><color>ff367db8</color><scale>1.1</scale><Icon><href>https://maps.google.com/mapfiles/kml/shapes/placemark_circle.png</href></Icon></IconStyle><LineStyle><color>ff367db8</color><width>2</width></LineStyle><LabelStyle><scale>0.8</scale></LabelStyle></Style><LookAt><longitude>129.337294</longitude><latitude>35.570425</latitude><altitude>0</altitude><heading>0</heading><tilt>65</tilt><range>850</range><altitudeMode>relativeToGround</altitudeMode></LookAt><ExtendedData><Data name="siteId"><value>parking-90014</value></Data><Data name="precision"><value>address-area</value></Data><Data name="source"><value>https://www.openstreetmap.org/node/9371700950</value></Data></ExtendedData><Point><extrude>1</extrude><altitudeMode>relativeToGround</altitudeMode><coordinates>129.337294,35.570425,60</coordinates></Point></Placemark><Placemark id="parking-89845"><name>예유재 · 지역 위치</name><address>경기도 파주시 탄현면 법흥리 Beopheung-ri, Tanhyeon-myeon, Paju, Gyeonggi-do, Korea</address><description>&lt;p&gt;경기도 파주시 탄현면 법흥리 Beopheung-ri, Tanhyeon-myeon, Paju, Gyeonggi-do, Korea&lt;/p&gt;&lt;p&gt;대략적인 지역 위치 · 추가 도면 4장&lt;/p&gt;&lt;p&gt;마커 높이는 표시용이며 건물 높이가 아닙니다.&lt;/p&gt;&lt;p&gt;&lt;a href=&quot;https://magazine.brique.co/project/yeyoojae/&quot;&gt;도면 발행처 원문&lt;/a&gt; · &lt;a href=&quot;https://www.google.com/maps/search/?api=1&amp;amp;query=%EA%B2%BD%EA%B8%B0%EB%8F%84+%ED%8C%8C%EC%A3%BC%EC%8B%9C+%ED%83%84%ED%98%84%EB%A9%B4+%EB%B2%95%ED%9D%A5%EB%A6%AC+Beopheung-ri%2C+Tanhyeon-myeon%2C+Paju%2C+Gyeonggi-do%2C+Korea&quot;&gt;구글 지도에서 주소 확인&lt;/a&gt;&lt;/p&gt;</description><Style><IconStyle><color>ff367db8</color><scale>1.1</scale><Icon><href>https://maps.google.com/mapfiles/kml/shapes/placemark_circle.png</href></Icon></IconStyle><LineStyle><color>ff367db8</color><width>2</width></LineStyle><LabelStyle><scale>0.8</scale></LabelStyle></Style><LookAt><longitude>126.6986149</longitude><latitude>37.7744084</latitude><altitude>0</altitude><heading>0</heading><tilt>65</tilt><range>850</range><altitudeMode>relativeToGround</altitudeMode></LookAt><ExtendedData><Data name="siteId"><value>parking-89845</value></Data><Data name="precision"><value>address-area</value></Data><Data name="source"><value>https://www.openstreetmap.org/relation/13170501</value></Data></ExtendedData><Point><extrude>1</extrude><altitudeMode>relativeToGround</altitudeMode><coordinates>126.6986149,37.7744084,60</coordinates></Point></Placemark><Placemark id="parking-56837"><name>왕자궁 백악관 · 지역 위치</name><address>경기도 남양주시 이패동 Ipae-dong, Namyangju-si, Gyeonggi-do, Korea</address><description>&lt;p&gt;경기도 남양주시 이패동 Ipae-dong, Namyangju-si, Gyeonggi-do, Korea&lt;/p&gt;&lt;p&gt;대략적인 지역 위치 · 추가 도면 3장&lt;/p&gt;&lt;p&gt;마커 높이는 표시용이며 건물 높이가 아닙니다.&lt;/p&gt;&lt;p&gt;&lt;a href=&quot;https://magazine.brique.co/project/%ec%99%95%ec%9e%90%ea%b6%81-%eb%b0%b1%ec%95%85%ea%b4%80/&quot;&gt;도면 발행처 원문&lt;/a&gt; · &lt;a href=&quot;https://www.google.com/maps/search/?api=1&amp;amp;query=%EA%B2%BD%EA%B8%B0%EB%8F%84+%EB%82%A8%EC%96%91%EC%A3%BC%EC%8B%9C+%EC%9D%B4%ED%8C%A8%EB%8F%99+Ipae-dong%2C+Namyangju-si%2C+Gyeonggi-do%2C+Korea&quot;&gt;구글 지도에서 주소 확인&lt;/a&gt;&lt;/p&gt;</description><Style><IconStyle><color>ff367db8</color><scale>1.1</scale><Icon><href>https://maps.google.com/mapfiles/kml/shapes/placemark_circle.png</href></Icon></IconStyle><LineStyle><color>ff367db8</color><width>2</width></LineStyle><LabelStyle><scale>0.8</scale></LabelStyle></Style><LookAt><longitude>127.1930732</longitude><latitude>37.6083349</latitude><altitude>0</altitude><heading>0</heading><tilt>65</tilt><range>850</range><altitudeMode>relativeToGround</altitudeMode></LookAt><ExtendedData><Data name="siteId"><value>parking-56837</value></Data><Data name="precision"><value>address-area</value></Data><Data name="source"><value>https://www.openstreetmap.org/node/415154172</value></Data></ExtendedData><Point><extrude>1</extrude><altitudeMode>relativeToGround</altitudeMode><coordinates>127.1930732,37.6083349,60</coordinates></Point></Placemark><Placemark id="parking-52390"><name>포뮬리에 · 지역 위치</name><address>대전광역시 유성구 탑립동 Taprip-dong, Yuseong-gu, Daejeon-si, Korea</address><description>&lt;p&gt;대전광역시 유성구 탑립동 Taprip-dong, Yuseong-gu, Daejeon-si, Korea&lt;/p&gt;&lt;p&gt;대략적인 지역 위치 · 추가 도면 4장&lt;/p&gt;&lt;p&gt;마커 높이는 표시용이며 건물 높이가 아닙니다.&lt;/p&gt;&lt;p&gt;&lt;a href=&quot;https://magazine.brique.co/project/%ed%8f%ac%eb%ae%ac%eb%a6%ac%ec%97%90-fomulier/&quot;&gt;도면 발행처 원문&lt;/a&gt; · &lt;a href=&quot;https://www.google.com/maps/search/?api=1&amp;amp;query=%EB%8C%80%EC%A0%84%EA%B4%91%EC%97%AD%EC%8B%9C+%EC%9C%A0%EC%84%B1%EA%B5%AC+%ED%83%91%EB%A6%BD%EB%8F%99+Taprip-dong%2C+Yuseong-gu%2C+Daejeon-si%2C+Korea&quot;&gt;구글 지도에서 주소 확인&lt;/a&gt;&lt;/p&gt;</description><Style><IconStyle><color>ff367db8</color><scale>1.1</scale><Icon><href>https://maps.google.com/mapfiles/kml/shapes/placemark_circle.png</href></Icon></IconStyle><LineStyle><color>ff367db8</color><width>2</width></LineStyle><LabelStyle><scale>0.8</scale></LabelStyle></Style><LookAt><longitude>127.4111826</longitude><latitude>36.4162285</latitude><altitude>0</altitude><heading>0</heading><tilt>65</tilt><range>850</range><altitudeMode>relativeToGround</altitudeMode></LookAt><ExtendedData><Data name="siteId"><value>parking-52390</value></Data><Data name="precision"><value>address-area</value></Data><Data name="source"><value>https://www.openstreetmap.org/node/415161440</value></Data></ExtendedData><Point><extrude>1</extrude><altitudeMode>relativeToGround</altitudeMode><coordinates>127.4111826,36.4162285,60</coordinates></Point></Placemark><Placemark id="parking-47946"><name>운양동 리아네 두 가구 주택 · 지역 위치</name><address>경기도 김포시 운양동 Unyang-dong, Gimpo-si, Gyeonggi-do, Korea</address><description>&lt;p&gt;경기도 김포시 운양동 Unyang-dong, Gimpo-si, Gyeonggi-do, Korea&lt;/p&gt;&lt;p&gt;대략적인 지역 위치 · 추가 도면 1장&lt;/p&gt;&lt;p&gt;마커 높이는 표시용이며 건물 높이가 아닙니다.&lt;/p&gt;&lt;p&gt;&lt;a href=&quot;https://magazine.brique.co/project/%ec%9a%b4%ec%96%91%eb%8f%99-%eb%a6%ac%ec%95%84%eb%84%a4-%eb%91%90-%ea%b0%80%ea%b5%ac-%ec%a3%bc%ed%83%9d/&quot;&gt;도면 발행처 원문&lt;/a&gt; · &lt;a href=&quot;https://www.google.com/maps/search/?api=1&amp;amp;query=%EA%B2%BD%EA%B8%B0%EB%8F%84+%EA%B9%80%ED%8F%AC%EC%8B%9C+%EC%9A%B4%EC%96%91%EB%8F%99+Unyang-dong%2C+Gimpo-si%2C+Gyeonggi-do%2C+Korea&quot;&gt;구글 지도에서 주소 확인&lt;/a&gt;&lt;/p&gt;</description><Style><IconStyle><color>ff367db8</color><scale>1.1</scale><Icon><href>https://maps.google.com/mapfiles/kml/shapes/placemark_circle.png</href></Icon></IconStyle><LineStyle><color>ff367db8</color><width>2</width></LineStyle><LabelStyle><scale>0.8</scale></LabelStyle></Style><LookAt><longitude>126.6829889</longitude><latitude>37.6562562</latitude><altitude>0</altitude><heading>0</heading><tilt>65</tilt><range>850</range><altitudeMode>relativeToGround</altitudeMode></LookAt><ExtendedData><Data name="siteId"><value>parking-47946</value></Data><Data name="precision"><value>address-area</value></Data><Data name="source"><value>https://www.openstreetmap.org/node/4754104133</value></Data></ExtendedData><Point><extrude>1</extrude><altitudeMode>relativeToGround</altitudeMode><coordinates>126.6829889,37.6562562,60</coordinates></Point></Placemark><Placemark id="parking-46541"><name>또바기 집 · B1 · 지역 위치</name><address>경기도 용인시 수지구 죽전동 Gyeonggi-do Yongin-si Suji-gu Jukjeon-dong</address><description>&lt;p&gt;경기도 용인시 수지구 죽전동 Gyeonggi-do Yongin-si Suji-gu Jukjeon-dong&lt;/p&gt;&lt;p&gt;대략적인 지역 위치 · 추가 도면 9장&lt;/p&gt;&lt;p&gt;마커 높이는 표시용이며 건물 높이가 아닙니다.&lt;/p&gt;&lt;p&gt;&lt;a href=&quot;https://magazine.brique.co/project/%eb%98%90%eb%b0%94%ea%b8%b0-%ec%a7%91/&quot;&gt;도면 발행처 원문&lt;/a&gt; · &lt;a href=&quot;https://www.google.com/maps/search/?api=1&amp;amp;query=%EA%B2%BD%EA%B8%B0%EB%8F%84+%EC%9A%A9%EC%9D%B8%EC%8B%9C+%EC%88%98%EC%A7%80%EA%B5%AC+%EC%A3%BD%EC%A0%84%EB%8F%99+Gyeonggi-do+Yongin-si+Suji-gu+Jukjeon-dong&quot;&gt;구글 지도에서 주소 확인&lt;/a&gt;&lt;/p&gt;</description><Style><IconStyle><color>ff367db8</color><scale>1.1</scale><Icon><href>https://maps.google.com/mapfiles/kml/shapes/placemark_circle.png</href></Icon></IconStyle><LineStyle><color>ff367db8</color><width>2</width></LineStyle><LabelStyle><scale>0.8</scale></LabelStyle></Style><LookAt><longitude>127.11631</longitude><latitude>37.3292</latitude><altitude>0</altitude><heading>0</heading><tilt>65</tilt><range>850</range><altitudeMode>relativeToGround</altitudeMode></LookAt><ExtendedData><Data name="siteId"><value>parking-46541</value></Data><Data name="precision"><value>address-area</value></Data><Data name="source"><value>https://www.openstreetmap.org/node/415155241</value></Data></ExtendedData><Point><extrude>1</extrude><altitudeMode>relativeToGround</altitudeMode><coordinates>127.11631,37.3292,60</coordinates></Point></Placemark><Placemark id="parking-42450"><name>백현동 주택 · 지역 위치</name><address>경기도 성남시 분당구 백현동 Baekhyeon-dong, Bundang-gu, Seongman-si, Gyeonggi-do, Korea</address><description>&lt;p&gt;경기도 성남시 분당구 백현동 Baekhyeon-dong, Bundang-gu, Seongman-si, Gyeonggi-do, Korea&lt;/p&gt;&lt;p&gt;대략적인 지역 위치 · 추가 도면 2장&lt;/p&gt;&lt;p&gt;마커 높이는 표시용이며 건물 높이가 아닙니다.&lt;/p&gt;&lt;p&gt;&lt;a href=&quot;https://magazine.brique.co/project/%eb%b0%b1%ed%98%84%eb%8f%99-%ec%a3%bc%ed%83%9d%ed%8e%b8%ec%a7%91-%ec%99%84/&quot;&gt;도면 발행처 원문&lt;/a&gt; · &lt;a href=&quot;https://www.google.com/maps/search/?api=1&amp;amp;query=%EA%B2%BD%EA%B8%B0%EB%8F%84+%EC%84%B1%EB%82%A8%EC%8B%9C+%EB%B6%84%EB%8B%B9%EA%B5%AC+%EB%B0%B1%ED%98%84%EB%8F%99+Baekhyeon-dong%2C+Bundang-gu%2C+Seongman-si%2C+Gyeonggi-do%2C+Korea&quot;&gt;구글 지도에서 주소 확인&lt;/a&gt;&lt;/p&gt;</description><Style><IconStyle><color>ff367db8</color><scale>1.1</scale><Icon><href>https://maps.google.com/mapfiles/kml/shapes/placemark_circle.png</href></Icon></IconStyle><LineStyle><color>ff367db8</color><width>2</width></LineStyle><LabelStyle><scale>0.8</scale></LabelStyle></Style><LookAt><longitude>127.1078551</longitude><latitude>37.3887318</latitude><altitude>0</altitude><heading>0</heading><tilt>65</tilt><range>850</range><altitudeMode>relativeToGround</altitudeMode></LookAt><ExtendedData><Data name="siteId"><value>parking-42450</value></Data><Data name="precision"><value>address-area</value></Data><Data name="source"><value>https://www.openstreetmap.org/node/415155242</value></Data></ExtendedData><Point><extrude>1</extrude><altitudeMode>relativeToGround</altitudeMode><coordinates>127.1078551,37.3887318,60</coordinates></Point></Placemark><Placemark id="parking-170036"><name>일곡 하얀집 · 지역 위치</name><address>광주광역시 북구 일곡동 /Ilgok-dong, Buk-gu, Gwangju, Republic of Korea</address><description>&lt;p&gt;광주광역시 북구 일곡동 /Ilgok-dong, Buk-gu, Gwangju, Republic of Korea&lt;/p&gt;&lt;p&gt;대략적인 지역 위치 · 추가 도면 0장&lt;/p&gt;&lt;p&gt;마커 높이는 표시용이며 건물 높이가 아닙니다.&lt;/p&gt;&lt;p&gt;&lt;a href=&quot;https://magazine.brique.co/project/plan-architects-office-ilgok-white-house/&quot;&gt;도면 발행처 원문&lt;/a&gt; · &lt;a href=&quot;https://www.google.com/maps/search/?api=1&amp;amp;query=%EA%B4%91%EC%A3%BC%EA%B4%91%EC%97%AD%EC%8B%9C+%EB%B6%81%EA%B5%AC+%EC%9D%BC%EA%B3%A1%EB%8F%99+%2FIlgok-dong%2C+Buk-gu%2C+Gwangju%2C+Republic+of+Korea&quot;&gt;구글 지도에서 주소 확인&lt;/a&gt;&lt;/p&gt;</description><Style><IconStyle><color>ff367db8</color><scale>1.1</scale><Icon><href>https://maps.google.com/mapfiles/kml/shapes/placemark_circle.png</href></Icon></IconStyle><LineStyle><color>ff367db8</color><width>2</width></LineStyle><LabelStyle><scale>0.8</scale></LabelStyle></Style><LookAt><longitude>126.8950292</longitude><latitude>35.2093565</latitude><altitude>0</altitude><heading>0</heading><tilt>65</tilt><range>850</range><altitudeMode>relativeToGround</altitudeMode></LookAt><ExtendedData><Data name="siteId"><value>parking-170036</value></Data><Data name="precision"><value>address-area</value></Data><Data name="source"><value>https://www.openstreetmap.org/node/415146305</value></Data></ExtendedData><Point><extrude>1</extrude><altitudeMode>relativeToGround</altitudeMode><coordinates>126.8950292,35.2093565,60</coordinates></Point></Placemark><Placemark id="complex-onepentas"><name>래미안 원펜타스 · 단지 배치도 · 지역 위치</name><address>서울특별시 서초구 반포동 12번지 일대</address><description>&lt;p&gt;서울특별시 서초구 반포동 12번지 일대&lt;/p&gt;&lt;p&gt;대략적인 지역 위치 · 추가 도면 0장&lt;/p&gt;&lt;p&gt;마커 높이는 표시용이며 건물 높이가 아닙니다.&lt;/p&gt;&lt;p&gt;&lt;a href=&quot;https://www.raemian.co.kr/sales/sub/s/onepentas?menuSeq=10051&quot;&gt;도면 발행처 원문&lt;/a&gt; · &lt;a href=&quot;https://www.google.com/maps/search/?api=1&amp;amp;query=%EC%84%9C%EC%9A%B8%ED%8A%B9%EB%B3%84%EC%8B%9C+%EC%84%9C%EC%B4%88%EA%B5%AC+%EB%B0%98%ED%8F%AC%EB%8F%99+12%EB%B2%88%EC%A7%80+%EC%9D%BC%EB%8C%80&quot;&gt;구글 지도에서 주소 확인&lt;/a&gt;&lt;/p&gt;</description><Style><IconStyle><color>ff367db8</color><scale>1.1</scale><Icon><href>https://maps.google.com/mapfiles/kml/shapes/placemark_circle.png</href></Icon></IconStyle><LineStyle><color>ff367db8</color><width>2</width></LineStyle><LabelStyle><scale>0.8</scale></LabelStyle></Style><LookAt><longitude>127.0017984</longitude><latitude>37.5040052</latitude><altitude>0</altitude><heading>0</heading><tilt>65</tilt><range>850</range><altitudeMode>relativeToGround</altitudeMode></LookAt><ExtendedData><Data name="siteId"><value>complex-onepentas</value></Data><Data name="precision"><value>address-area</value></Data><Data name="source"><value>https://www.openstreetmap.org/relation/3880689</value></Data></ExtendedData><Point><extrude>1</extrude><altitudeMode>relativeToGround</altitudeMode><coordinates>127.0017984,37.5040052,60</coordinates></Point></Placemark><Placemark id="park-boramae"><name>보라매공원 · 지역 위치</name><address>서울특별시 동작구 여의대방로20길 33</address><description>&lt;p&gt;서울특별시 동작구 여의대방로20길 33&lt;/p&gt;&lt;p&gt;공원 대표 위치 · 추가 도면 0장&lt;/p&gt;&lt;p&gt;마커 높이는 표시용이며 건물 높이가 아닙니다.&lt;/p&gt;&lt;p&gt;&lt;a href=&quot;https://gov.seoul.go.kr/festa/files/2025/05/682bc1be350963.28180700.pdf#page=1&quot;&gt;도면 발행처 원문&lt;/a&gt; · &lt;a href=&quot;https://www.google.com/maps/search/?api=1&amp;amp;query=%EC%84%9C%EC%9A%B8%ED%8A%B9%EB%B3%84%EC%8B%9C+%EB%8F%99%EC%9E%91%EA%B5%AC+%EC%97%AC%EC%9D%98%EB%8C%80%EB%B0%A9%EB%A1%9C20%EA%B8%B8+33&quot;&gt;구글 지도에서 주소 확인&lt;/a&gt;&lt;/p&gt;</description><Style><IconStyle><color>ff367db8</color><scale>1.1</scale><Icon><href>https://maps.google.com/mapfiles/kml/shapes/placemark_circle.png</href></Icon></IconStyle><LineStyle><color>ff367db8</color><width>2</width></LineStyle><LabelStyle><scale>0.8</scale></LabelStyle></Style><LookAt><longitude>126.920474</longitude><latitude>37.4932422</latitude><altitude>0</altitude><heading>0</heading><tilt>65</tilt><range>850</range><altitudeMode>relativeToGround</altitudeMode></LookAt><ExtendedData><Data name="siteId"><value>park-boramae</value></Data><Data name="precision"><value>park-centroid</value></Data><Data name="source"><value>https://www.openstreetmap.org/way/286555214</value></Data></ExtendedData><Point><extrude>1</extrude><altitudeMode>relativeToGround</altitudeMode><coordinates>126.920474,37.4932422,60</coordinates></Point></Placemark><Placemark id="park-seoul-forest"><name>서울숲 · 지역 위치</name><address>서울특별시 성동구 뚝섬로 273</address><description>&lt;p&gt;서울특별시 성동구 뚝섬로 273&lt;/p&gt;&lt;p&gt;공원 대표 위치 · 추가 도면 0장&lt;/p&gt;&lt;p&gt;마커 높이는 표시용이며 건물 높이가 아닙니다.&lt;/p&gt;&lt;p&gt;&lt;a href=&quot;https://www.seoul.go.kr/festa/files/2026/03/69a93ec17497e4.06719720.pdf#page=5&quot;&gt;도면 발행처 원문&lt;/a&gt; · &lt;a href=&quot;https://www.google.com/maps/search/?api=1&amp;amp;query=%EC%84%9C%EC%9A%B8%ED%8A%B9%EB%B3%84%EC%8B%9C+%EC%84%B1%EB%8F%99%EA%B5%AC+%EB%9A%9D%EC%84%AC%EB%A1%9C+273&quot;&gt;구글 지도에서 주소 확인&lt;/a&gt;&lt;/p&gt;</description><Style><IconStyle><color>ff367db8</color><scale>1.1</scale><Icon><href>https://maps.google.com/mapfiles/kml/shapes/placemark_circle.png</href></Icon></IconStyle><LineStyle><color>ff367db8</color><width>2</width></LineStyle><LabelStyle><scale>0.8</scale></LabelStyle></Style><LookAt><longitude>127.0447397</longitude><latitude>37.5435916</latitude><altitude>0</altitude><heading>0</heading><tilt>65</tilt><range>850</range><altitudeMode>relativeToGround</altitudeMode></LookAt><ExtendedData><Data name="siteId"><value>park-seoul-forest</value></Data><Data name="precision"><value>park-centroid</value></Data><Data name="source"><value>https://www.openstreetmap.org/node/6312484234</value></Data></ExtendedData><Point><extrude>1</extrude><altitudeMode>relativeToGround</altitudeMode><coordinates>127.0447397,37.5435916,60</coordinates></Point></Placemark></Folder></Document></kml>
