<?xml version="1.0" encoding="UTF-8"?>
<kml xmlns="http://www.opengis.net/kml/2.2"><Document><name>ATLAS · 주소와 도면 · 3D 마커</name><description>발행처 위치와 대략적인 지역 위치를 폴더·색상으로 구분합니다. 마커 높이는 표시용이며 건물 높이가 아닙니다.</description><LookAt><longitude>127.4</longitude><latitude>36.4</latitude><altitude>0</altitude><heading>0</heading><tilt>25</tilt><range>650000</range></LookAt><Folder><name>주소·시설 위치</name><Placemark id="multilevel-dogok"><name>도곡중 복합시설 · 지하 1–4층 · B1</name><address>서울특별시 강남구 도곡동 541-2 도곡중학교</address><description>&lt;p&gt;서울특별시 강남구 도곡동 541-2 도곡중학교&lt;/p&gt;&lt;p&gt;주소·시설 위치 · 추가 도면 0장&lt;/p&gt;&lt;p&gt;마커 높이는 표시용이며 건물 높이가 아닙니다.&lt;/p&gt;&lt;p&gt;&lt;a href=&quot;https://ms.smc.seoul.kr/attach/record/SEOUL/appendix/a10/A0051136.pdf#page=17&quot;&gt;도면 발행처 원문&lt;/a&gt; · &lt;a href=&quot;https://www.google.com/maps/search/?api=1&amp;amp;query=%EC%84%9C%EC%9A%B8%ED%8A%B9%EB%B3%84%EC%8B%9C+%EA%B0%95%EB%82%A8%EA%B5%AC+%EB%8F%84%EA%B3%A1%EB%8F%99+541-2+%EB%8F%84%EA%B3%A1%EC%A4%91%ED%95%99%EA%B5%90&quot;&gt;구글 지도에서 주소 확인&lt;/a&gt;&lt;/p&gt;</description><Style><IconStyle><color>ff607a48</color><scale>1.1</scale><Icon><href>https://maps.google.com/mapfiles/kml/shapes/placemark_circle.png</href></Icon></IconStyle><LineStyle><color>ff607a48</color><width>2</width></LineStyle><LabelStyle><scale>0.8</scale></LabelStyle></Style><LookAt><longitude>127.0449746</longitude><latitude>37.4925348</latitude><altitude>0</altitude><heading>0</heading><tilt>65</tilt><range>850</range><altitudeMode>relativeToGround</altitudeMode></LookAt><ExtendedData><Data name="siteId"><value>multilevel-dogok</value></Data><Data name="precision"><value>address-result</value></Data><Data name="source"><value>https://www.openstreetmap.org/way/417952853</value></Data></ExtendedData><Point><extrude>1</extrude><altitudeMode>relativeToGround</altitudeMode><coordinates>127.0449746,37.4925348,60</coordinates></Point></Placemark><Placemark id="parking-168780"><name>동탄호수공원 주차장</name><address>경기도 화성시 동탄구 동탄대로5길 12 외 1필지</address><description>&lt;p&gt;경기도 화성시 동탄구 동탄대로5길 12 외 1필지&lt;/p&gt;&lt;p&gt;주소·시설 위치 · 추가 도면 8장&lt;/p&gt;&lt;p&gt;마커 높이는 표시용이며 건물 높이가 아닙니다.&lt;/p&gt;&lt;p&gt;&lt;a href=&quot;https://magazine.brique.co/project/uia-dongtan-lake-park-arched-car-park-architecture/&quot;&gt;도면 발행처 원문&lt;/a&gt; · &lt;a href=&quot;https://www.google.com/maps/search/?api=1&amp;amp;query=%EA%B2%BD%EA%B8%B0%EB%8F%84+%ED%99%94%EC%84%B1%EC%8B%9C+%EB%8F%99%ED%83%84%EA%B5%AC+%EB%8F%99%ED%83%84%EB%8C%80%EB%A1%9C5%EA%B8%B8+12+%EC%99%B8+1%ED%95%84%EC%A7%80&quot;&gt;구글 지도에서 주소 확인&lt;/a&gt;&lt;/p&gt;</description><Style><IconStyle><color>ff607a48</color><scale>1.1</scale><Icon><href>https://maps.google.com/mapfiles/kml/shapes/placemark_circle.png</href></Icon></IconStyle><LineStyle><color>ff607a48</color><width>2</width></LineStyle><LabelStyle><scale>0.8</scale></LabelStyle></Style><LookAt><longitude>127.105092</longitude><latitude>37.167928</latitude><altitude>0</altitude><heading>0</heading><tilt>65</tilt><range>850</range><altitudeMode>relativeToGround</altitudeMode></LookAt><ExtendedData><Data name="siteId"><value>parking-168780</value></Data><Data name="precision"><value>osm-facility-centroid</value></Data><Data name="source"><value>https://www.openstreetmap.org/way/683628616</value></Data></ExtendedData><Point><extrude>1</extrude><altitudeMode>relativeToGround</altitudeMode><coordinates>127.105092,37.167928,60</coordinates></Point></Placemark><Placemark id="parking-68790"><name>매곡도서관</name><address>울산광역시 북구 매곡로 138-19 138-19, Maegok-ro, Buk-gu, Ulsan, Korea</address><description>&lt;p&gt;울산광역시 북구 매곡로 138-19 138-19, Maegok-ro, Buk-gu, Ulsan, Korea&lt;/p&gt;&lt;p&gt;주소·시설 위치 · 추가 도면 8장&lt;/p&gt;&lt;p&gt;마커 높이는 표시용이며 건물 높이가 아닙니다.&lt;/p&gt;&lt;p&gt;&lt;a href=&quot;https://magazine.brique.co/project/%eb%a7%a4%ea%b3%a1%eb%8f%84%ec%84%9c%ea%b4%80/&quot;&gt;도면 발행처 원문&lt;/a&gt; · &lt;a href=&quot;https://www.google.com/maps/search/?api=1&amp;amp;query=%EC%9A%B8%EC%82%B0%EA%B4%91%EC%97%AD%EC%8B%9C+%EB%B6%81%EA%B5%AC+%EB%A7%A4%EA%B3%A1%EB%A1%9C+138-19+138-19%2C+Maegok-ro%2C+Buk-gu%2C+Ulsan%2C+Korea&quot;&gt;구글 지도에서 주소 확인&lt;/a&gt;&lt;/p&gt;</description><Style><IconStyle><color>ff607a48</color><scale>1.1</scale><Icon><href>https://maps.google.com/mapfiles/kml/shapes/placemark_circle.png</href></Icon></IconStyle><LineStyle><color>ff607a48</color><width>2</width></LineStyle><LabelStyle><scale>0.8</scale></LabelStyle></Style><LookAt><longitude>129.3588273</longitude><latitude>35.6464076</latitude><altitude>0</altitude><heading>0</heading><tilt>65</tilt><range>850</range><altitudeMode>relativeToGround</altitudeMode></LookAt><ExtendedData><Data name="siteId"><value>parking-68790</value></Data><Data name="precision"><value>osm-facility-centroid</value></Data><Data name="source"><value>https://www.openstreetmap.org/node/9787116144</value></Data></ExtendedData><Point><extrude>1</extrude><altitudeMode>relativeToGround</altitudeMode><coordinates>129.3588273,35.6464076,60</coordinates></Point></Placemark></Folder><Folder><name>발행처 제공 위치</name><Placemark id="changdong"><name>창동 아우르네 · 공개 계획</name><address>서울특별시 도봉구 마들로13길 84 (창동 아우르네)</address><description>&lt;p&gt;서울특별시 도봉구 마들로13길 84 (창동 아우르네)&lt;/p&gt;&lt;p&gt;발행처 제공 위치 · 추가 도면 6장&lt;/p&gt;&lt;p&gt;마커 높이는 표시용이며 건물 높이가 아닙니다.&lt;/p&gt;&lt;p&gt;&lt;a href=&quot;https://mediahub.seoul.go.kr/wp-content/uploads/2020/03/ff42c687eb729c49cb070336a85c9abc.pdf#page=16&quot;&gt;도면 발행처 원문&lt;/a&gt; · &lt;a href=&quot;https://www.google.com/maps/search/?api=1&amp;amp;query=%EC%84%9C%EC%9A%B8%ED%8A%B9%EB%B3%84%EC%8B%9C+%EB%8F%84%EB%B4%89%EA%B5%AC+%EB%A7%88%EB%93%A4%EB%A1%9C13%EA%B8%B8+84+%28%EC%B0%BD%EB%8F%99+%EC%95%84%EC%9A%B0%EB%A5%B4%EB%84%A4%29&quot;&gt;구글 지도에서 주소 확인&lt;/a&gt;&lt;/p&gt;</description><Style><IconStyle><color>ff8e7952</color><scale>1.1</scale><Icon><href>https://maps.google.com/mapfiles/kml/shapes/placemark_circle.png</href></Icon></IconStyle><LineStyle><color>ff8e7952</color><width>2</width></LineStyle><LabelStyle><scale>0.8</scale></LabelStyle></Style><LookAt><longitude>127.048185</longitude><latitude>37.655512</latitude><altitude>0</altitude><heading>0</heading><tilt>65</tilt><range>850</range><altitudeMode>relativeToGround</altitudeMode></LookAt><ExtendedData><Data name="siteId"><value>changdong</value></Data><Data name="precision"><value>publisher-google-point</value></Data><Data name="source"><value>https://www.50plus.or.kr/snc/location.do</value></Data></ExtendedData><Point><extrude>1</extrude><altitudeMode>relativeToGround</altitudeMode><coordinates>127.048185,37.655512,60</coordinates></Point></Placemark><Placemark id="10000901"><name>신내소행주 - 공동육아형 공동체주택 [너나들이]</name><address>서울 중랑구 신내역로1길 145 너나들이</address><description>&lt;p&gt;서울 중랑구 신내역로1길 145 너나들이&lt;/p&gt;&lt;p&gt;발행처 제공 위치 · 추가 도면 0장&lt;/p&gt;&lt;p&gt;마커 높이는 표시용이며 건물 높이가 아닙니다.&lt;/p&gt;&lt;p&gt;&lt;a href=&quot;https://soco.seoul.go.kr/coHouse/pgm/home/cohome/view.do?homeCode=10000901&amp;amp;menuNo=200015&quot;&gt;도면 발행처 원문&lt;/a&gt; · &lt;a href=&quot;https://www.google.com/maps/search/?api=1&amp;amp;query=%EC%84%9C%EC%9A%B8+%EC%A4%91%EB%9E%91%EA%B5%AC+%EC%8B%A0%EB%82%B4%EC%97%AD%EB%A1%9C1%EA%B8%B8+145+%EB%84%88%EB%82%98%EB%93%A4%EC%9D%B4&quot;&gt;구글 지도에서 주소 확인&lt;/a&gt;&lt;/p&gt;</description><Style><IconStyle><color>ff8e7952</color><scale>1.1</scale><Icon><href>https://maps.google.com/mapfiles/kml/shapes/placemark_circle.png</href></Icon></IconStyle><LineStyle><color>ff8e7952</color><width>2</width></LineStyle><LabelStyle><scale>0.8</scale></LabelStyle></Style><LookAt><longitude>127.1102204</longitude><latitude>37.6180982</latitude><altitude>0</altitude><heading>0</heading><tilt>65</tilt><range>850</range><altitudeMode>relativeToGround</altitudeMode></LookAt><ExtendedData><Data name="siteId"><value>10000901</value></Data><Data name="precision"><value>publisher-naver-point</value></Data><Data name="source"><value>https://soco.seoul.go.kr/coHouse/pgm/home/cohome/view.do?homeCode=10000901&amp;menuNo=200015</value></Data></ExtendedData><Point><extrude>1</extrude><altitudeMode>relativeToGround</altitudeMode><coordinates>127.1102204,37.6180982,60</coordinates></Point></Placemark><Placemark id="20000555"><name>어반그로잉 동숭</name><address>서울 종로구 동숭동 192-6 1</address><description>&lt;p&gt;서울 종로구 동숭동 192-6 1&lt;/p&gt;&lt;p&gt;발행처 제공 위치 · 추가 도면 2장&lt;/p&gt;&lt;p&gt;마커 높이는 표시용이며 건물 높이가 아닙니다.&lt;/p&gt;&lt;p&gt;&lt;a href=&quot;https://soco.seoul.go.kr/coHouse/pgm/home/cohome/view.do?homeCode=20000555&amp;amp;menuNo=200015&quot;&gt;도면 발행처 원문&lt;/a&gt; · &lt;a href=&quot;https://www.google.com/maps/search/?api=1&amp;amp;query=%EC%84%9C%EC%9A%B8+%EC%A2%85%EB%A1%9C%EA%B5%AC+%EB%8F%99%EC%88%AD%EB%8F%99+192-6+1&quot;&gt;구글 지도에서 주소 확인&lt;/a&gt;&lt;/p&gt;</description><Style><IconStyle><color>ff8e7952</color><scale>1.1</scale><Icon><href>https://maps.google.com/mapfiles/kml/shapes/placemark_circle.png</href></Icon></IconStyle><LineStyle><color>ff8e7952</color><width>2</width></LineStyle><LabelStyle><scale>0.8</scale></LabelStyle></Style><LookAt><longitude>127.0053034</longitude><latitude>37.5794313</latitude><altitude>0</altitude><heading>0</heading><tilt>65</tilt><range>850</range><altitudeMode>relativeToGround</altitudeMode></LookAt><ExtendedData><Data name="siteId"><value>20000555</value></Data><Data name="precision"><value>publisher-naver-point</value></Data><Data name="source"><value>https://soco.seoul.go.kr/coHouse/pgm/home/cohome/view.do?homeCode=20000555&amp;menuNo=200015</value></Data></ExtendedData><Point><extrude>1</extrude><altitudeMode>relativeToGround</altitudeMode><coordinates>127.0053034,37.5794313,60</coordinates></Point></Placemark><Placemark id="10002143"><name>면목동 공동체주택마을 [도서당]</name><address>서울특별시 중랑구 동일로631-3 (면목동) 앞 면목동 176-129번지</address><description>&lt;p&gt;서울특별시 중랑구 동일로631-3 (면목동) 앞 면목동 176-129번지&lt;/p&gt;&lt;p&gt;발행처 제공 위치 · 추가 도면 0장&lt;/p&gt;&lt;p&gt;마커 높이는 표시용이며 건물 높이가 아닙니다.&lt;/p&gt;&lt;p&gt;&lt;a href=&quot;https://soco.seoul.go.kr/coHouse/pgm/home/cohome/view.do?homeCode=10002143&amp;amp;menuNo=200015&quot;&gt;도면 발행처 원문&lt;/a&gt; · &lt;a href=&quot;https://www.google.com/maps/search/?api=1&amp;amp;query=%EC%84%9C%EC%9A%B8%ED%8A%B9%EB%B3%84%EC%8B%9C+%EC%A4%91%EB%9E%91%EA%B5%AC+%EB%8F%99%EC%9D%BC%EB%A1%9C631-3+%28%EB%A9%B4%EB%AA%A9%EB%8F%99%29+%EC%95%9E+%EB%A9%B4%EB%AA%A9%EB%8F%99+176-129%EB%B2%88%EC%A7%80&quot;&gt;구글 지도에서 주소 확인&lt;/a&gt;&lt;/p&gt;</description><Style><IconStyle><color>ff8e7952</color><scale>1.1</scale><Icon><href>https://maps.google.com/mapfiles/kml/shapes/placemark_circle.png</href></Icon></IconStyle><LineStyle><color>ff8e7952</color><width>2</width></LineStyle><LabelStyle><scale>0.8</scale></LabelStyle></Style><LookAt><longitude>127.078164</longitude><latitude>37.586564</latitude><altitude>0</altitude><heading>0</heading><tilt>65</tilt><range>850</range><altitudeMode>relativeToGround</altitudeMode></LookAt><ExtendedData><Data name="siteId"><value>10002143</value></Data><Data name="precision"><value>publisher-naver-point</value></Data><Data name="source"><value>https://soco.seoul.go.kr/coHouse/pgm/home/cohome/view.do?homeCode=10002143&amp;menuNo=200015</value></Data></ExtendedData><Point><extrude>1</extrude><altitudeMode>relativeToGround</altitudeMode><coordinates>127.078164,37.586564,60</coordinates></Point></Placemark><Placemark id="20000367"><name>맑은구름집</name><address>서울특별시 종로구 자하문로30길19-9 (청운동) 맑은구름집</address><description>&lt;p&gt;서울특별시 종로구 자하문로30길19-9 (청운동) 맑은구름집&lt;/p&gt;&lt;p&gt;발행처 제공 위치 · 추가 도면 4장&lt;/p&gt;&lt;p&gt;마커 높이는 표시용이며 건물 높이가 아닙니다.&lt;/p&gt;&lt;p&gt;&lt;a href=&quot;https://soco.seoul.go.kr/coHouse/pgm/home/cohome/view.do?homeCode=20000367&amp;amp;menuNo=200015&quot;&gt;도면 발행처 원문&lt;/a&gt; · &lt;a href=&quot;https://www.google.com/maps/search/?api=1&amp;amp;query=%EC%84%9C%EC%9A%B8%ED%8A%B9%EB%B3%84%EC%8B%9C+%EC%A2%85%EB%A1%9C%EA%B5%AC+%EC%9E%90%ED%95%98%EB%AC%B8%EB%A1%9C30%EA%B8%B819-9+%28%EC%B2%AD%EC%9A%B4%EB%8F%99%29+%EB%A7%91%EC%9D%80%EA%B5%AC%EB%A6%84%EC%A7%91&quot;&gt;구글 지도에서 주소 확인&lt;/a&gt;&lt;/p&gt;</description><Style><IconStyle><color>ff8e7952</color><scale>1.1</scale><Icon><href>https://maps.google.com/mapfiles/kml/shapes/placemark_circle.png</href></Icon></IconStyle><LineStyle><color>ff8e7952</color><width>2</width></LineStyle><LabelStyle><scale>0.8</scale></LabelStyle></Style><LookAt><longitude>126.9658718</longitude><latitude>37.566156</latitude><altitude>0</altitude><heading>0</heading><tilt>65</tilt><range>850</range><altitudeMode>relativeToGround</altitudeMode></LookAt><ExtendedData><Data name="siteId"><value>20000367</value></Data><Data name="precision"><value>publisher-naver-point</value></Data><Data name="source"><value>https://soco.seoul.go.kr/coHouse/pgm/home/cohome/view.do?homeCode=20000367&amp;menuNo=200015</value></Data></ExtendedData><Point><extrude>1</extrude><altitudeMode>relativeToGround</altitudeMode><coordinates>126.9658718,37.566156,60</coordinates></Point></Placemark><Placemark id="20000474"><name>사는자리 공동체주택</name><address>서울 금천구 시흥대로130길 13 사는자리</address><description>&lt;p&gt;서울 금천구 시흥대로130길 13 사는자리&lt;/p&gt;&lt;p&gt;발행처 제공 위치 · 추가 도면 0장&lt;/p&gt;&lt;p&gt;마커 높이는 표시용이며 건물 높이가 아닙니다.&lt;/p&gt;&lt;p&gt;&lt;a href=&quot;https://soco.seoul.go.kr/coHouse/pgm/home/cohome/view.do?homeCode=20000474&amp;amp;menuNo=200015&quot;&gt;도면 발행처 원문&lt;/a&gt; · &lt;a href=&quot;https://www.google.com/maps/search/?api=1&amp;amp;query=%EC%84%9C%EC%9A%B8+%EA%B8%88%EC%B2%9C%EA%B5%AC+%EC%8B%9C%ED%9D%A5%EB%8C%80%EB%A1%9C130%EA%B8%B8+13+%EC%82%AC%EB%8A%94%EC%9E%90%EB%A6%AC&quot;&gt;구글 지도에서 주소 확인&lt;/a&gt;&lt;/p&gt;</description><Style><IconStyle><color>ff8e7952</color><scale>1.1</scale><Icon><href>https://maps.google.com/mapfiles/kml/shapes/placemark_circle.png</href></Icon></IconStyle><LineStyle><color>ff8e7952</color><width>2</width></LineStyle><LabelStyle><scale>0.8</scale></LabelStyle></Style><LookAt><longitude>126.8997224</longitude><latitude>37.4709282</latitude><altitude>0</altitude><heading>0</heading><tilt>65</tilt><range>850</range><altitudeMode>relativeToGround</altitudeMode></LookAt><ExtendedData><Data name="siteId"><value>20000474</value></Data><Data name="precision"><value>publisher-naver-point</value></Data><Data name="source"><value>https://soco.seoul.go.kr/coHouse/pgm/home/cohome/view.do?homeCode=20000474&amp;menuNo=200015</value></Data></ExtendedData><Point><extrude>1</extrude><altitudeMode>relativeToGround</altitudeMode><coordinates>126.8997224,37.4709282,60</coordinates></Point></Placemark><Placemark id="10000921"><name>신내 여성안심주택 [달리]</name><address>서울 중랑구 신내동 243-14 여성안심공동체주택 달리</address><description>&lt;p&gt;서울 중랑구 신내동 243-14 여성안심공동체주택 달리&lt;/p&gt;&lt;p&gt;발행처 제공 위치 · 추가 도면 0장&lt;/p&gt;&lt;p&gt;마커 높이는 표시용이며 건물 높이가 아닙니다.&lt;/p&gt;&lt;p&gt;&lt;a href=&quot;https://soco.seoul.go.kr/coHouse/pgm/home/cohome/view.do?homeCode=10000921&amp;amp;menuNo=200015&quot;&gt;도면 발행처 원문&lt;/a&gt; · &lt;a href=&quot;https://www.google.com/maps/search/?api=1&amp;amp;query=%EC%84%9C%EC%9A%B8+%EC%A4%91%EB%9E%91%EA%B5%AC+%EC%8B%A0%EB%82%B4%EB%8F%99+243-14+%EC%97%AC%EC%84%B1%EC%95%88%EC%8B%AC%EA%B3%B5%EB%8F%99%EC%B2%B4%EC%A3%BC%ED%83%9D+%EB%8B%AC%EB%A6%AC&quot;&gt;구글 지도에서 주소 확인&lt;/a&gt;&lt;/p&gt;</description><Style><IconStyle><color>ff8e7952</color><scale>1.1</scale><Icon><href>https://maps.google.com/mapfiles/kml/shapes/placemark_circle.png</href></Icon></IconStyle><LineStyle><color>ff8e7952</color><width>2</width></LineStyle><LabelStyle><scale>0.8</scale></LabelStyle></Style><LookAt><longitude>127.1098077</longitude><latitude>37.6179732</latitude><altitude>0</altitude><heading>0</heading><tilt>65</tilt><range>850</range><altitudeMode>relativeToGround</altitudeMode></LookAt><ExtendedData><Data name="siteId"><value>10000921</value></Data><Data name="precision"><value>publisher-naver-point</value></Data><Data name="source"><value>https://soco.seoul.go.kr/coHouse/pgm/home/cohome/view.do?homeCode=10000921&amp;menuNo=200015</value></Data></ExtendedData><Point><extrude>1</extrude><altitudeMode>relativeToGround</altitudeMode><coordinates>127.1098077,37.6179732,60</coordinates></Point></Placemark><Placemark id="20000441"><name>온음공동체주택</name><address>서울 마포구 성미산로5안길 15 온음공동체주택</address><description>&lt;p&gt;서울 마포구 성미산로5안길 15 온음공동체주택&lt;/p&gt;&lt;p&gt;발행처 제공 위치 · 추가 도면 3장&lt;/p&gt;&lt;p&gt;마커 높이는 표시용이며 건물 높이가 아닙니다.&lt;/p&gt;&lt;p&gt;&lt;a href=&quot;https://soco.seoul.go.kr/coHouse/pgm/home/cohome/view.do?homeCode=20000441&amp;amp;menuNo=200015&quot;&gt;도면 발행처 원문&lt;/a&gt; · &lt;a href=&quot;https://www.google.com/maps/search/?api=1&amp;amp;query=%EC%84%9C%EC%9A%B8+%EB%A7%88%ED%8F%AC%EA%B5%AC+%EC%84%B1%EB%AF%B8%EC%82%B0%EB%A1%9C5%EC%95%88%EA%B8%B8+15+%EC%98%A8%EC%9D%8C%EA%B3%B5%EB%8F%99%EC%B2%B4%EC%A3%BC%ED%83%9D&quot;&gt;구글 지도에서 주소 확인&lt;/a&gt;&lt;/p&gt;</description><Style><IconStyle><color>ff8e7952</color><scale>1.1</scale><Icon><href>https://maps.google.com/mapfiles/kml/shapes/placemark_circle.png</href></Icon></IconStyle><LineStyle><color>ff8e7952</color><width>2</width></LineStyle><LabelStyle><scale>0.8</scale></LabelStyle></Style><LookAt><longitude>126.9103709</longitude><latitude>37.5607555</latitude><altitude>0</altitude><heading>0</heading><tilt>65</tilt><range>850</range><altitudeMode>relativeToGround</altitudeMode></LookAt><ExtendedData><Data name="siteId"><value>20000441</value></Data><Data name="precision"><value>publisher-naver-point</value></Data><Data name="source"><value>https://soco.seoul.go.kr/coHouse/pgm/home/cohome/view.do?homeCode=20000441&amp;menuNo=200015</value></Data></ExtendedData><Point><extrude>1</extrude><altitudeMode>relativeToGround</altitudeMode><coordinates>126.9103709,37.5607555,60</coordinates></Point></Placemark><Placemark id="20000536"><name>암사예가</name><address>서울 강동구 고덕로24나길 7 암사예가</address><description>&lt;p&gt;서울 강동구 고덕로24나길 7 암사예가&lt;/p&gt;&lt;p&gt;발행처 제공 위치 · 추가 도면 0장&lt;/p&gt;&lt;p&gt;마커 높이는 표시용이며 건물 높이가 아닙니다.&lt;/p&gt;&lt;p&gt;&lt;a href=&quot;https://soco.seoul.go.kr/coHouse/pgm/home/cohome/view.do?homeCode=20000536&amp;amp;menuNo=200015&quot;&gt;도면 발행처 원문&lt;/a&gt; · &lt;a href=&quot;https://www.google.com/maps/search/?api=1&amp;amp;query=%EC%84%9C%EC%9A%B8+%EA%B0%95%EB%8F%99%EA%B5%AC+%EA%B3%A0%EB%8D%95%EB%A1%9C24%EB%82%98%EA%B8%B8+7+%EC%95%94%EC%82%AC%EC%98%88%EA%B0%80&quot;&gt;구글 지도에서 주소 확인&lt;/a&gt;&lt;/p&gt;</description><Style><IconStyle><color>ff8e7952</color><scale>1.1</scale><Icon><href>https://maps.google.com/mapfiles/kml/shapes/placemark_circle.png</href></Icon></IconStyle><LineStyle><color>ff8e7952</color><width>2</width></LineStyle><LabelStyle><scale>0.8</scale></LabelStyle></Style><LookAt><longitude>127.1358008</longitude><latitude>37.5528195</latitude><altitude>0</altitude><heading>0</heading><tilt>65</tilt><range>850</range><altitudeMode>relativeToGround</altitudeMode></LookAt><ExtendedData><Data name="siteId"><value>20000536</value></Data><Data name="precision"><value>publisher-naver-point</value></Data><Data name="source"><value>https://soco.seoul.go.kr/coHouse/pgm/home/cohome/view.do?homeCode=20000536&amp;menuNo=200015</value></Data></ExtendedData><Point><extrude>1</extrude><altitudeMode>relativeToGround</altitudeMode><coordinates>127.1358008,37.5528195,60</coordinates></Point></Placemark><Placemark id="10002042"><name>코이노니아 스테이</name><address>서울 강서구 강서로47길 60 코이노니아스테이</address><description>&lt;p&gt;서울 강서구 강서로47길 60 코이노니아스테이&lt;/p&gt;&lt;p&gt;발행처 제공 위치 · 추가 도면 7장&lt;/p&gt;&lt;p&gt;마커 높이는 표시용이며 건물 높이가 아닙니다.&lt;/p&gt;&lt;p&gt;&lt;a href=&quot;https://soco.seoul.go.kr/coHouse/pgm/home/cohome/view.do?homeCode=10002042&amp;amp;menuNo=200015&quot;&gt;도면 발행처 원문&lt;/a&gt; · &lt;a href=&quot;https://www.google.com/maps/search/?api=1&amp;amp;query=%EC%84%9C%EC%9A%B8+%EA%B0%95%EC%84%9C%EA%B5%AC+%EA%B0%95%EC%84%9C%EB%A1%9C47%EA%B8%B8+60+%EC%BD%94%EC%9D%B4%EB%85%B8%EB%8B%88%EC%95%84%EC%8A%A4%ED%85%8C%EC%9D%B4&quot;&gt;구글 지도에서 주소 확인&lt;/a&gt;&lt;/p&gt;</description><Style><IconStyle><color>ff8e7952</color><scale>1.1</scale><Icon><href>https://maps.google.com/mapfiles/kml/shapes/placemark_circle.png</href></Icon></IconStyle><LineStyle><color>ff8e7952</color><width>2</width></LineStyle><LabelStyle><scale>0.8</scale></LabelStyle></Style><LookAt><longitude>126.8328836</longitude><latitude>37.553125</latitude><altitude>0</altitude><heading>0</heading><tilt>65</tilt><range>850</range><altitudeMode>relativeToGround</altitudeMode></LookAt><ExtendedData><Data name="siteId"><value>10002042</value></Data><Data name="precision"><value>publisher-naver-point</value></Data><Data name="source"><value>https://soco.seoul.go.kr/coHouse/pgm/home/cohome/view.do?homeCode=10002042&amp;menuNo=200015</value></Data></ExtendedData><Point><extrude>1</extrude><altitudeMode>relativeToGround</altitudeMode><coordinates>126.8328836,37.553125,60</coordinates></Point></Placemark><Placemark id="20000570"><name>오늘공동체주택</name><address>서울 도봉구 도봉로191길 80 (도봉동 351-2)</address><description>&lt;p&gt;서울 도봉구 도봉로191길 80 (도봉동 351-2)&lt;/p&gt;&lt;p&gt;발행처 제공 위치 · 추가 도면 2장&lt;/p&gt;&lt;p&gt;마커 높이는 표시용이며 건물 높이가 아닙니다.&lt;/p&gt;&lt;p&gt;&lt;a href=&quot;https://soco.seoul.go.kr/coHouse/pgm/home/cohome/view.do?homeCode=20000570&amp;amp;menuNo=200015&quot;&gt;도면 발행처 원문&lt;/a&gt; · &lt;a href=&quot;https://www.google.com/maps/search/?api=1&amp;amp;query=%EC%84%9C%EC%9A%B8+%EB%8F%84%EB%B4%89%EA%B5%AC+%EB%8F%84%EB%B4%89%EB%A1%9C191%EA%B8%B8+80+%28%EB%8F%84%EB%B4%89%EB%8F%99+351-2%29&quot;&gt;구글 지도에서 주소 확인&lt;/a&gt;&lt;/p&gt;</description><Style><IconStyle><color>ff8e7952</color><scale>1.1</scale><Icon><href>https://maps.google.com/mapfiles/kml/shapes/placemark_circle.png</href></Icon></IconStyle><LineStyle><color>ff8e7952</color><width>2</width></LineStyle><LabelStyle><scale>0.8</scale></LabelStyle></Style><LookAt><longitude>127.0409754</longitude><latitude>37.6904247</latitude><altitude>0</altitude><heading>0</heading><tilt>65</tilt><range>850</range><altitudeMode>relativeToGround</altitudeMode></LookAt><ExtendedData><Data name="siteId"><value>20000570</value></Data><Data name="precision"><value>publisher-naver-point</value></Data><Data name="source"><value>https://soco.seoul.go.kr/coHouse/pgm/home/cohome/view.do?homeCode=20000570&amp;menuNo=200015</value></Data></ExtendedData><Point><extrude>1</extrude><altitudeMode>relativeToGround</altitudeMode><coordinates>127.0409754,37.6904247,60</coordinates></Point></Placemark></Folder><Folder><name>대략적인 지역 위치 — 건물 지점 아님</name></Folder></Document></kml>
